{"version":0.6,"generator":"Overpass API 0.7.57.1 74a55df1","osm3s":{"timestamp_osm_base":"2022-04-04T12:35:53Z","copyright":"The data included in this document is from www.openstreetmap.org. The data is made available under ODbL."},"elements":[{"type":"way","id":186,"nodes":[635141,1699718491],"tags":{"cycleway:both":"no","highway":"tertiary","highway_authority_ref":"C506","lanes":"2","lit":"yes","maxspeed":"30 mph","name":"Palmerston Road","parking:lane:both":"no_parking","sidewalk":"both","surface":"asphalt"}},{"type":"way","id":187,"nodes":[300163945,20971161,1069824552,20971162,1069824621,635144,1069824580,20971163,5007586084,471843053,635145],"tags":{"highway":"tertiary","maxspeed":"30 mph","name":"Houndwell Place","parking:lane:left":"no_parking"}},{"type":"way","id":188,"nodes":[635146,6916973441,1069824555,1069824613,1071065110,1074846217,3188817101,1071065105,20972822,1069824584,635147],"tags":{"cycleway":"opposite_track","cycleway:left":"lane","highway":"primary","horse":"yes","maxspeed":"30 mph","motorcar":"yes","name":"Marsh Lane","oneway":"yes","ref":"A33","surface":"asphalt"}},{"type":"way","id":1687,"nodes":[324346,2274870874,954843250,2274870883,3932337041,658450,8085525379,310890,310893,939386538],"tags":{"highway":"residential","lanes":"2","maxspeed":"30 mph","name":"Cambridge Road","surface":"asphalt"}},{"type":"way","id":1688,"nodes":[325641,1744032265,1744032199,1744032107,325642],"tags":{"highway":"residential","maxspeed":"30 mph","name":"Rose Road","surface":"asphalt"}},{"type":"way","id":1691,"nodes":[442384,3932337043,658451,319622],"tags":{"highway":"residential","lanes":"2","maxspeed":"30 mph","name":"Spear Road","surface":"asphalt"}},{"type":"way","id":1692,"nodes":[603226,2290116142,603227,427874303,319622],"tags":{"highway":"residential","lanes":"2","maxspeed":"30 mph","name":"Clausentum Road","surface":"asphalt"}},{"type":"way","id":1696,"nodes":[319620,319622],"tags":{"highway":"residential","lanes":"2","maxspeed":"20 mph","name":"Forster Road","sidewalk":"both","surface":"asphalt"}},{"type":"way","id":3266,"nodes":[700538,700539],"tags":{"bicycle":"yes","foot":"yes","highway":"residential","horse":"yes","maxspeed":"30 mph","motorcar":"yes","name":"Rigby Road","surface":"asphalt"}},{"type":"way","id":1189480,"nodes":[700384,700392,6705038772,1835504403,700393,1835504397,1835504396,700394,700395,4931288,700396,1835504394,700397,700544],"tags":{"highway":"residential","lanes":"2","maxspeed":"30 mph","name":"Woodside Road","surface":"asphalt"}},{"type":"way","id":1189534,"nodes":[4931456,2060890723,9586080055,19890070,319630],"tags":{"highway":"unclassified","lanes":"2","maxspeed":"30 mph","name":"Dukes Road","surface":"asphalt"}},{"type":"way","id":1260586,"nodes":[319649,6707978287,658448,658449,3932337042,325698],"tags":{"highway":"residential","lanes":"2","maxspeed":"30 mph","name":"Earls Road","surface":"asphalt"}},{"type":"way","id":1260931,"nodes":[319630,19890072,19890074,3472996902],"tags":{"highway":"residential","lanes":"2","maxspeed":"30 mph","name":"Lawn Road","surface":"asphalt"}},{"type":"way","id":1639354,"nodes":[7015241,254359,2339176040,402752,254361,2337583304,254362,9496620798,2339176531,2337583315,9496620799,254363,2337583328,254364,2337570313,8064192308,6487502152,422967,6487502164,8064192303,254365],"tags":{"highway":"tertiary","highway_authority_ref":"C502","maxspeed":"30 mph","name":"Banister Road","surface":"asphalt"}},{"type":"way","id":1639435,"nodes":[940485294,1094890569,2023749713,940485301,940485303,324350,299513702,2389497998,296541530,940485434,2388477208,2388477189,2388477210,324352,2397286796,1762224577,324353,8075640299,8075640282,8075640280,8075640302],"tags":{"highway":"residential","maxspeed":"30 mph","name":"Carlton Crescent","surface":"asphalt"}},{"type":"way","id":1639688,"nodes":[14727952,7170690320,14727953],"tags":{"highway":"primary","lanes":"2","maxspeed":"30 mph","name":"The Avenue","oneway":"yes","ref":"A33","surface":"asphalt"}},{"type":"way","id":2147334,"nodes":[254379,3733097271,1734977904,340526974,18232071,20831110,297783946,1827562294,9507887181,254380,9507887182,254381],"tags":{"cycleway:both":"no","highway":"unclassified","lanes":"2","maxspeed":"20 mph","name":"Bedford Place","surface":"asphalt"}},{"type":"way","id":2352113,"nodes":[8596749,6472662963,3750461312,3750461228,297519732,6472662973,3750461251,3750461234],"tags":{"highway":"primary","lanes":"2","maxspeed":"30 mph","oneway":"yes","ref":"A3024","surface":"asphalt"}},{"type":"way","id":2352117,"nodes":[8596812,2467156357,6475336479,3750461308],"tags":{"cycleway":"no","highway":"primary","lanes":"2","lit":"yes","maxspeed":"30 mph","oneway":"yes","parking:lane:left":"no_parking","ref":"A3024","sidewalk":"left","surface":"asphalt"}},{"type":"way","id":2956544,"nodes":[8075917123,8075917127,8075917122,1947275512,25675140,13885368,1947275513,7832550618,7832550617,13885349],"tags":{"highway":"unclassified","maxspeed":"20 mph","name":"East Street","oneway":"yes"}},{"type":"way","id":3084954,"nodes":[8075640302,1885303986,254370,806455810,402751,8364459295,8364459302,2331255079,254373,3330985261,7015241],"tags":{"highway":"residential","lanes":"2","maxspeed":"30 mph","name":"Carlton Road","surface":"asphalt"}},{"type":"way","id":3084956,"nodes":[254414,297798012],"tags":{"highway":"tertiary","lit":"yes","maxspeed":"30 mph","surface":"asphalt"}},{"type":"way","id":3084959,"nodes":[20971145,1981156953,1137181198,20971144,25764485,9483352975,1885303912,9483352974,297051603],"tags":{"abutters":"retail","highway":"residential","maxspeed":"30 mph","name":"St Mary's Road"}},{"type":"way","id":3084962,"nodes":[6487969958,9193663369,297059405,7799614375,7799614378,7799614379,1047978800],"tags":{"highway":"tertiary","lit":"yes","maxspeed":"30 mph","name":"East Park Terrace","oneway":"yes","surface":"asphalt"}},{"type":"way","id":3087850,"nodes":[6487969958,2023757547,6594272288,2023757546,1885248620,7812015652],"tags":{"highway":"primary","junction":"roundabout","lanes":"3","lit":"yes","maxspeed":"30 mph","name":"Charlotte Place","oneway":"yes","surface":"asphalt"}},{"type":"way","id":3087955,"nodes":[862475,1885303937,14726559,8064197153,7170690319,254533,9483318347,254534,9483318345,254535,9483318344,254536,9483318343,1665484531,254537],"tags":{"highway":"primary","lanes":"2","lit":"yes","maxspeed":"30 mph","name":"Dorset Street","oneway":"yes","ref":"A33","surface":"asphalt"}},{"type":"way","id":3087956,"nodes":[14726555,14726556,14726557,14726558],"tags":{"highway":"primary","lanes":"3","lit":"yes","maxspeed":"30 mph","name":"Dorset Street","old_ref":"A335","oneway":"yes","ref":"A33","surface":"asphalt","turn:lanes":"through|through|right"}},{"type":"way","id":3088260,"nodes":[254429,6916097409,2060890711,6916097411,1745962964,2388403909,319623,14727946,9266205],"tags":{"cycleway:left":"no","cycleway:right":"lane","cycleway:right:lane":"exclusive","highway":"tertiary","highway_authority_ref":"C502","lanes":"2","maxspeed":"30 mph","name":"Bevois Hill","old_ref":"A335","surface":"asphalt"}},{"type":"way","id":3088261,"nodes":[14727983,7918433680,3659118795,3659118790,1045972146,1045972184],"tags":{"highway":"primary","lanes":"2","maxspeed":"30 mph","name":"The Avenue","oneway":"yes","ref":"A33","sidewalk":"separate","surface":"asphalt"}},{"type":"way","id":3088264,"nodes":[3736286721,3873918862,34278580],"tags":{"cycleway:left":"no","foot":"no","highway":"primary","lanes":"2","maxspeed":"30 mph","name":"St Andrews Road","oneway":"yes","ref":"A33","surface":"asphalt"}},{"type":"way","id":3091885,"nodes":[297805607,297806047,254922],"tags":{"highway":"primary","lanes":"2","lit":"yes","maxspeed":"30 mph","name":"Cumberland Place","oneway":"yes","ref":"A3024","surface":"asphalt"}},{"type":"way","id":3091888,"nodes":[657799,297803597],"tags":{"highway":"unclassified","lanes":"2","lit":"yes","maxspeed":"30 mph","sidewalk":"no","surface":"asphalt"}},{"type":"way","id":3092127,"nodes":[2470666625,8117379453,8117379454,8117379449,8117379450],"tags":{"highway":"tertiary","highway_authority_ref":"C503","lanes":"4","lanes:backward":"2","lanes:bus:backward":"1","lanes:bus:forward":"1","lanes:forward":"2","maxspeed":"30 mph","name":"New Road","parking:lane:both":"no_parking","surface":"asphalt"}},{"type":"way","id":3102395,"nodes":[19892124,6473998059,19892127,6473998034,254567,254568,31486269,31486271,2052199281,6305289818,7299304186,1958804114,254575,26447520],"tags":{"cycleway:both":"no","highway":"tertiary","highway_authority_ref":"C504","lanes":"2","maxspeed":"30 mph","maxspeed:type":"sign","name":"Millbank Street","surface":"asphalt"}},{"type":"way","id":3102402,"nodes":[1664438249,1665478137,254637,25764488,254638,5198978013,254639,5198978019,254640,5198978015,1665958197,518772,518771,19890101,5198978322,254645,2359387485,2359387530,19890103,2442020473,265806834,254646,254647,5198978323,254648,5198978014,19890104,160216595],"tags":{"cycleway":"no","highway":"tertiary","highway_authority_ref":"C504","lanes":"2","lit":"yes","maxspeed":"30 mph","name":"Mount Pleasant Road","sidewalk":"both","surface":"asphalt"}},{"type":"way","id":3102404,"nodes":[301572,1668579202,1668579169,1668579184,1071065093,1668579171,20972817,1668579173,5007586077,2463814846,6917033918,20972815],"tags":{"highway":"primary","lanes":"2","maxspeed":"30 mph","name":"Evans Street","oneway":"yes","ref":"A33","source":"Yahoo","surface":"asphalt"}},{"type":"way","id":3102408,"nodes":[254883,297056995,6594272320,14726189],"tags":{"highway":"primary","lanes":"2","lit":"yes","maxspeed":"30 mph","name":"Charlotte Place","oneway":"yes","ref":"A335","surface":"asphalt"}},{"type":"way","id":3127995,"nodes":[1665954524,1923938448,1664438232],"tags":{"highway":"unclassified","lanes":"2","maxspeed":"30 mph","name":"Kingsbury Road","surface":"asphalt"}},{"type":"way","id":3578750,"nodes":[297803597,9250339420,8075508151,245150603,5410458237,1885252354,2573554956,657800,297707752,3208888426,300157542,9198457531,2573544959,18232073,612526494,8075508158,657798],"tags":{"highway":"unclassified","lanes":"2","lit":"yes","maxspeed":"30 mph","name":"Commercial Road","surface":"asphalt"}},{"type":"way","id":3631232,"nodes":[9312078,1137181213,6668245124,254533],"tags":{"highway":"residential","maxspeed":"20 mph","motor_vehicle":"destination","name":"Lyon Street","oneway":"yes"}},{"type":"way","id":3631233,"nodes":[1749464714,2290116140,2290116141,17979920,603226,17979922],"tags":{"highway":"residential","lanes":"2","maxspeed":"20 mph","name":"Ancasta Road","surface":"asphalt"}},{"type":"way","id":3631234,"nodes":[1664438223,8504279768,17979922],"tags":{"highway":"residential","lanes":"2","maxspeed":"30 mph","name":"Ancasta Road","surface":"asphalt"}},{"type":"way","id":3651050,"nodes":[18101129,2967517120,2990688426,2004992510,1734967097,18101131,1734967103,2005004414,18101133,18101134],"tags":{"highway":"residential","lanes":"2","maxspeed":"30 mph","name":"Ordnance Road","surface":"asphalt"}},{"type":"way","id":3651051,"nodes":[940485294,2023749711,2005004313,28343213,657803],"tags":{"highway":"residential","lanes":"2","maxspeed":"30 mph","name":"Bellevue Road","surface":"asphalt"}},{"type":"way","id":3651052,"nodes":[657802,2009864817,1035915524,657803],"tags":{"highway":"residential","lanes":"2","maxspeed":"30 mph","name":"Kings Park Road"}},{"type":"way","id":3677084,"nodes":[297618638,9573747360,2576424106,1015843319,30780758,30780755,8061329427],"tags":{"cycleway":"no","highway":"unclassified","lanes":"2","maxspeed":"30 mph","name":"West Marlands Road","surface":"paving_stones"}},{"type":"way","id":3677089,"nodes":[297803557,254899],"tags":{"cycleway:both":"no","highway":"residential","lane_markings":"no","maxspeed":"30 mph","name":"Devonshire Road","note":"southernmost segment might be part of the polygon. need to check","sidewalk":"no","source:maxspeed":"sign","surface":"asphalt"}},{"type":"way","id":3712704,"nodes":[8075640299,8075640295,8075640294,8075640292,8075640290,4711095888,8075640287],"tags":{"highway":"residential","lanes":"2","maxspeed":"20 mph","name":"Rockstone Place","surface":"asphalt"}},{"type":"way","id":3879899,"nodes":[14726558,1047978853,254537],"tags":{"highway":"primary","lanes":"1","lit":"yes","maxspeed":"30 mph","name":"Onslow Road","oneway":"yes","ref":"A335","sidewalk":"no","surface":"asphalt"}},{"type":"way","id":3879900,"nodes":[19890101,9517175557,9517175558,19890099],"tags":{"cycleway":"no","highway":"unclassified","lanes":"2","lit":"yes","maxspeed":"30 mph","name":"Northumberland Road","sidewalk":"both","surface":"asphalt"}},{"type":"way","id":3880048,"nodes":[8464378380,26447532,26447522,6473992639,8829023325,1127644913,1014815247,19892133,1094493382,7918490890],"tags":{"cycleway":"no","highway":"secondary","lanes":"2","maxspeed":"30 mph","name":"Britannia Road","ref":"B3038","source:name":"OS_OpenData_StreetView","surface":"asphalt"}},{"type":"way","id":3981718,"nodes":[2398171233,853844766,9622378392,9622378389,853844925,2576456226,20698065],"tags":{"highway":"unclassified","maxspeed":"30 mph","name":"Ogle Road","surface":"asphalt"}},{"type":"way","id":3981719,"nodes":[20698070,20698068,299406038],"tags":{"highway":"unclassified","maxspeed":"30 mph","name":"Portland Street","surface":"asphalt"}},{"type":"way","id":3987524,"nodes":[340526977,9420774203,20831096],"tags":{"highway":"residential","lanes":"2","maxspeed":"30 mph","name":"Grosvenor Square","oneway":"yes","oneway:bicycle":"no","sidewalk":"both","surface":"asphalt"}},{"type":"way","id":3987525,"nodes":[20831097,1312755072,20831106,1094855694,20831107,9421300839,20831108,1094855679,20831109,1885252353,20831100],"tags":{"highway":"residential","lanes":"2","maxspeed":"30 mph","name":"Grosvenor Square"}},{"type":"way","id":3987526,"nodes":[20831103,20831104,20831105,1885252355,20831098,20831099,20831100,20831101,1885252358,1094855674,20831102,1885252356,20831103],"tags":{"highway":"residential","junction":"roundabout","lanes":"1","maxspeed":"30 mph","name":"Grosvenor Square"}},{"type":"way","id":3987527,"nodes":[20831103,9507887206,20831110],"tags":{"highway":"residential","lanes":"2","maxspeed":"30 mph","name":"Grosvenor Square"}},{"type":"way","id":3987532,"nodes":[20831112,7919556431,1094890539,8246704301,20831116,20831117],"tags":{"highway":"residential","maxspeed":"30 mph","name":"Southampton Street"}},{"type":"way","id":3999131,"nodes":[518763,1137184337,1981156917,1981156934,20971147,20971145],"tags":{"highway":"residential","maxspeed":"30 mph","name":"St Mary's Road"}},{"type":"way","id":3999132,"nodes":[518764,1981156720,26004483,1137184302,1137184322,20971150,518763],"tags":{"highway":"residential","maxspeed":"30 mph","name":"Trinity Road"}},{"type":"way","id":3999133,"nodes":[254757,2470666637,3873260087,20971149,3873260076,3873260095,20971148],"tags":{"highway":"residential","maxspeed":"30 mph","name":"Brintons Road"}},{"type":"way","id":3999135,"nodes":[589899994,589900019,20971152,20971153,1641900344,5007586083,5007586081,5007586079,20971154,1800031230,20971155],"tags":{"highway":"unclassified","maxspeed":"30 mph","name":"Park Walk","source:name":"survey","surface":"asphalt"}},{"type":"way","id":3999136,"nodes":[940514336,20971158,940514346,940514352,940514366,940514371,4498813872],"tags":{"highway":"tertiary","junction":"roundabout","maxspeed":"30 mph","oneway":"yes","parking:lane:both":"no_parking","surface":"asphalt"}},{"type":"way","id":3999146,"nodes":[20972812,3737412911],"tags":{"highway":"residential","maxspeed":"30 mph","name":"South Front"}},{"type":"way","id":3999276,"nodes":[301571,1123837079,1074846204,20972826,9500822514,301572,2463814850,1071065106,2463814851,1071065114,635146],"tags":{"highway":"primary","maxspeed":"30 mph","name":"Threefield Lane","oneway":"yes","ref":"A33","surface":"asphalt"}},{"type":"way","id":3999286,"nodes":[1094493384,1955836927,1094493315],"tags":{"highway":"residential","maxspeed":"20 mph","maxspeed:type":"sign","name":"Anglesea Terrace"}},{"type":"way","id":4083482,"nodes":[635142,245148856,245148640,21677588],"tags":{"highway":"unclassified","maxspeed":"20 mph","name":"Pound Tree Road","surface":"asphalt"}},{"type":"way","id":4083483,"nodes":[21677588,1014803065,245148950,21677595],"tags":{"highway":"unclassified","maxspeed":"20 mph","name":"Vincents Walk","oneway":"yes"}},{"type":"way","id":4083484,"nodes":[21677595,1014803047,9499477634,21677593,9499477633,9499477632,1014803061,9499477631,21677592,300163352,21677590],"tags":{"highway":"unclassified","maxspeed":"20 mph","name":"Vincents Walk","oneway":"yes"}},{"type":"way","id":4083485,"nodes":[21677590,1014798219,8626714168,8626714162,21677597],"tags":{"highway":"residential","maxspeed":"20 mph","name":"Sussex Road"}},{"type":"way","id":4254564,"nodes":[25480534,8464378394,254578,1186907662,1186907668,1664291957,8464378341,1664291951],"tags":{"cycleway:both":"no","highway":"tertiary","highway_authority_ref":"C504","lanes":"2","maxspeed":"30 mph","maxspeed:type":"sign","name":"Union Road","surface":"asphalt"}},{"type":"way","id":4254565,"nodes":[25480487,9503131893,1977108934,9503131894,9503131895,25480539,1963623528],"tags":{"highway":"living_street","maxspeed":"20 mph","name":"Parsonage Road","sidewalk":"both"}},{"type":"way","id":4254566,"nodes":[25480539,9503131896,1971706199,1156450739,25480561,1156450651],"tags":{"highway":"living_street","maxspeed":"20 mph","name":"Charliejoy Gardens"}},{"type":"way","id":4254568,"nodes":[25480566,25480578,25480582,742239695,25480584,25480591,1706176428],"tags":{"highway":"living_street","maxspeed":"20 mph","name":"Lumpy Lane"}},{"type":"way","id":4295846,"nodes":[9312075,9312074,9482189602,296577631,9312073,8112063480,8112063481,9482189603],"tags":{"highway":"residential","maxspeed":"30 mph","name":"Cranbury Avenue","sidewalk":"both","surface":"asphalt"}},{"type":"way","id":4310885,"nodes":[8596782,3736286711,1958837014,26114357,1958836979,26782574,1958836941,3736286686],"tags":{"highway":"residential","maxspeed":"20 mph","name":"Northam Road"}},{"type":"way","id":4310886,"nodes":[26114355,26114359],"tags":{"highway":"residential","maxspeed":"20 mph","name":"Clifford Street"}},{"type":"way","id":4310887,"nodes":[26114368,2156239958,1958701340,26114367,2156239979,26114366,1958701501,160233334],"tags":{"highway":"residential","maxspeed":"20 mph","name":"Golden Grove"}},{"type":"way","id":4310888,"nodes":[26114354,1156578435,26114358],"tags":{"highway":"residential","maxspeed":"20 mph","name":"Ascupart Street"}},{"type":"way","id":4310889,"nodes":[26114353,1156578418,1958701380,1984661591,2156239963,1958701379,1958701378,2156239961,1958701377,26114367],"tags":{"highway":"residential","maxspeed":"20 mph","name":"James Street"}},{"type":"way","id":4342625,"nodes":[1668644111,1955850941,20972789],"tags":{"highway":"residential","lit":"yes","maxspeed":"20 mph","name":"Paget Street","surface":"asphalt"}},{"type":"way","id":4342627,"nodes":[20972789,26447403],"tags":{"highway":"residential","maxspeed":"20 mph","name":"Anglesea Terrace"}},{"type":"way","id":4342628,"nodes":[26447403,1710023291,26447386,1955836792,26447404],"tags":{"highway":"residential","maxspeed":"20 mph","name":"Glebe Road"}},{"type":"way","id":4342629,"nodes":[26447404,1955836740],"tags":{"highway":"residential","maxspeed":"20 mph","name":"Ted Bates Road"}},{"type":"way","id":4342630,"nodes":[657793,9581818781,9581818780,1948216738,1948216742,26447398,9051510041,1022200587,9581818779,9581818778,26447399],"tags":{"highway":"residential","lanes":"2","lit":"yes","maxheight":"3.6","maxspeed":"30 mph","name":"Royal Crescent Road","surface":"asphalt"}},{"type":"way","id":4342636,"nodes":[26114357,1958836963,1958836975,3736286673,26447411],"tags":{"highway":"residential","maxspeed":"20 mph","name":"Northam Road"}},{"type":"way","id":4342666,"nodes":[254760,8464378365,1964489647,9558807428,26447509,9558807427,9558807426,26447510],"tags":{"highway":"residential","maxspeed":"20 mph","name":"Kent Street"}},{"type":"way","id":4342667,"nodes":[26447510,26447511,1156450783,26447512,8464378364,26447513],"tags":{"highway":"residential","maxspeed":"20 mph","name":"Kent Street","oneway":"yes"}},{"type":"way","id":4342668,"nodes":[254591,26447387,26447523,26447524,1958804405,1958804400,2052199291,26447513],"tags":{"highway":"residential","maxspeed":"20 mph","name":"Graham Street","surface":"asphalt"}},{"type":"way","id":4342671,"nodes":[26447507,26447506,9558807425,6734920389,26447505,2294431082,2294431079,26447383,2294431052,9558807424,26447502],"tags":{"highway":"unclassified","maxspeed":"30 mph","maxspeed:type":"sign","name":"Cable Street"}},{"type":"way","id":4342672,"nodes":[26447502,26447503,9558807422,9558807420,9558807421,9558807419,26447394],"tags":{"cycleway:both":"no","highway":"unclassified","maxspeed":"30 mph","maxspeed:type":"sign","name":"Wilson Street","surface":"asphalt"}},{"type":"way","id":4342674,"nodes":[26447528,26447382,26447507,26447508],"tags":{"highway":"unclassified","maxspeed":"30 mph","maxspeed:type":"sign","name":"Peel Street"}},{"type":"way","id":4342675,"nodes":[26447382,9558807433,26447520],"tags":{"cycleway:both":"no","highway":"unclassified","maxspeed":"30 mph","maxspeed:type":"sign","name":"Belvidere Terrace","surface":"asphalt"}},{"type":"way","id":4342677,"nodes":[26447522,26447530,9558807417,9558807418,26447394,26447528,254556],"tags":{"cycleway:both":"no","highway":"unclassified","maxspeed":"30 mph","maxspeed:type":"sign","name":"Rochester Street","surface":"asphalt"}},{"type":"way","id":4360445,"nodes":[1668566671,4574923196,26575745,1710023295,26447403],"tags":{"highway":"residential","maxspeed":"20 mph","name":"Nelson Street"}},{"type":"way","id":4360454,"nodes":[26782593,26575733,1123837218,26575769,26782596,26575770,26575771,26575724],"tags":{"highway":"residential","maxspeed":"20 mph","name":"Carpathia Drive"}},{"type":"way","id":4360455,"nodes":[26575770,26575722],"tags":{"highway":"residential","maxspeed":"20 mph","name":"Carpathia Drive"}},{"type":"way","id":4360456,"nodes":[26575771,1958422361,26575726],"tags":{"highway":"residential","maxspeed":"20 mph","name":"Clench Street"}},{"type":"way","id":4360457,"nodes":[26575769,1958422214,1958422198,26575732],"tags":{"highway":"residential","maxspeed":"20 mph","name":"Rudd Way"}},{"type":"way","id":4360458,"nodes":[26575733,26782594,26575777,26575776,26575772,26575773,26575774],"tags":{"highway":"residential","maxspeed":"20 mph","name":"White Star Place"}},{"type":"way","id":4546232,"nodes":[28343213,28343214],"tags":{"highway":"residential","maxspeed":"30 mph","name":"Asylum Road"}},{"type":"way","id":4589174,"nodes":[29026819,29026820,29026662],"tags":{"highway":"residential","lanes":"2","maxspeed":"30 mph","name":"Highcliff Avenue","surface":"asphalt"}},{"type":"way","id":4589175,"nodes":[29026822,1380820261,1380820275,29026823],"tags":{"access":"private","highway":"residential","maxspeed":"30 mph","name":"Cedar Gardens","surface":"gravel"}},{"type":"way","id":4635658,"nodes":[26114351,1958701132,29461230,29461231,29461232,2156239956,2156239953,29461233],"tags":{"highway":"residential","maxspeed":"20 mph","name":"Coleman Street"}},{"type":"way","id":4875464,"nodes":[31486271,297191080,8631425388,31486256,8631425387,8631425389,31486258,2442015023,31486260],"tags":{"cycleway:both":"no","highway":"unclassified","maxspeed":"30 mph","maxspeed:type":"sign","name":"William Street","surface":"asphalt"}},{"type":"way","id":4875465,"nodes":[31486266,297191255,31486267,7936557307,1169646751,31486269],"tags":{"cycleway:both":"no","highway":"unclassified","lane_markings":"no","lit":"yes","maxspeed":"30 mph","maxspeed:type":"sign","name":"Bond Street","sidewalk":"both","surface":"asphalt"}},{"type":"way","id":4875466,"nodes":[31486260,31486266,31486262],"tags":{"highway":"unclassified","maxspeed":"30 mph","maxspeed:type":"sign","name":"Lower William Street","odbl":"clean","surface":"asphalt"}},{"type":"way","id":5072024,"nodes":[3873919802,3873919804,34278522,3873919800,34278525,3873919805,34278529,3873919799,34278534],"tags":{"highway":"tertiary_link","lanes":"2","maxspeed":"30 mph","oneway":"yes","surface":"asphalt","turn:lanes":"left|left"}},{"type":"way","id":5072025,"nodes":[2470666627,34278555,3873260103,34278564,3873260093,1137181207,3873260085,34278567,3873260081,1137181204,3873260090,1137181205],"tags":{"highway":"primary_link","lanes":"1","maxspeed":"30 mph","oneway":"yes","surface":"asphalt"}},{"type":"way","id":5072028,"nodes":[3873918748,3736286717,660508642],"tags":{"foot":"no","highway":"primary","lanes":"1","maxspeed":"30 mph","name":"Kingsway","oneway":"yes","ref":"A3024","surface":"asphalt","turn:lanes":"right"}},{"type":"way","id":5072033,"nodes":[8596782,2470666627],"tags":{"highway":"primary","lanes":"3","maxspeed":"30 mph","name":"Northam Road","oneway":"yes","ref":"A3024","source":"Yahoo"}},{"type":"way","id":5072036,"nodes":[14726180,3873918742,34278614,3873260092,34278618,245152162,3873260078,3873260098,245153002],"tags":{"highway":"primary","lanes":"2","maxspeed":"30 mph","name":"St Andrews Road","oneway":"yes","ref":"A33","surface":"asphalt","turn:lanes":"right|right"}},{"type":"way","id":5072045,"nodes":[14713528,7252563960,9193663373,14726184],"tags":{"highway":"primary","lanes":"2","maxspeed":"30 mph","name":"St Andrews Road","oneway":"yes","ref":"A33","source":"Yahoo","surface":"asphalt"}},{"type":"way","id":5072047,"nodes":[254757,8596782],"tags":{"highway":"residential","lanes":"4","maxspeed":"30 mph"}},{"type":"way","id":5947663,"nodes":[48958681,9600711215,1167799543,1167799540,48958694,1167799554,1605199365,48958695],"tags":{"highway":"unclassified","lanes":"4","maxspeed":"30 mph","name":"Fitzhugh Street","source:maxspeed":"sign","surface":"asphalt"}},{"type":"way","id":5947665,"nodes":[588687896,588687995,9600713241,9600713240,9600713242,48958705],"tags":{"highway":"unclassified","lit":"yes","maxspeed":"30 mph","name":"Pirelli Street","oneway":"yes","source:name":"survey","surface":"asphalt"}},{"type":"way","id":8126547,"nodes":[1047978800,7799614377,7799614376,9193663370,297059885,7812015652],"tags":{"highway":"tertiary","lanes":"2","lit":"yes","maxspeed":"30 mph","name":"East Park Terrace","oneway":"yes","surface":"asphalt"}},{"type":"way","id":8137074,"nodes":[254758,1743636391,8063742159,1137181220,1743636422,8596789],"tags":{"highway":"primary","lanes":"2","maxspeed":"30 mph","maxweightrating:hgv":"7.5","name":"Northam Road","ref":"A3024","surface":"asphalt"}},{"type":"way","id":8302434,"nodes":[1664291951,19890110],"tags":{"cycleway":"no","highway":"tertiary","highway_authority_ref":"C504","lane_markings":"no","maxspeed":"30 mph","surface":"asphalt"}},{"type":"way","id":8554121,"nodes":[48958705,9600713243,9600713244,9600713245,588687739,20973110],"tags":{"highway":"unclassified","lit":"yes","maxspeed":"30 mph","name":"Pirelli Street","oneway":"yes","source:name":"survey","surface":"asphalt"}},{"type":"way","id":9674785,"nodes":[48958705,48958701],"tags":{"highway":"unclassified","lit":"yes","maxspeed":"30 mph","name":"Pirelli Street","source:name":"survey","surface":"asphalt"}},{"type":"way","id":9678651,"nodes":[254537,9483318348,9483318349,2005021334,254427],"tags":{"highway":"primary","lanes":"2","lit":"yes","maxspeed":"30 mph","name":"Onslow Road","ref":"A335","sidewalk":"separate","surface":"asphalt"}},{"type":"way","id":10155309,"nodes":[2445926017,2445784039,160180234,160180355,160183633,2445784057,2445784047,15657690,160183635,2445784042,15657691,160183637,2445784052,2445784053,15657692,160183639,2445784049,160183640,2445784046,15657693,160183641,2445784050],"tags":{"alt_name":"St Denys to Portcreek Junction Line","electrified":"rail","frequency":"0","gauge":"1435","maxspeed":"60 mph","name":"West Coastway Line","passenger":"regional","passenger_lines":"2","railway":"rail","ref":"SDP1","usage":"main","voltage":"750"}},{"type":"way","id":15942070,"nodes":[160216595,5198978016,1901158044,254611,1977116412,1977109513,25480534],"tags":{"cycleway:right":"track","highway":"tertiary","highway_authority_ref":"C504","lit":"yes","maxspeed":"30 mph","name":"Radcliffe Road","surface":"asphalt"}},{"type":"way","id":22801715,"nodes":[245152607,3873918860,245152653,245152654,3873918857,245152655],"tags":{"cycleway:left":"no","destination:ref":"A33","highway":"tertiary_link","lanes":"1","lit":"yes","maxspeed":"30 mph","oneway":"yes","parking:lane:left":"no_parking","sidewalk":"no","surface":"asphalt"}},{"type":"way","id":22801736,"nodes":[4998734857,1156463408,17769058,2446094011,160232028,160232029,160232030,160232032,2446091160,17769060,2446316265,160232034,2446316274,2446316288,160232036,2446316240,2446316247,17769062,2446316281,9293992578,2446316278,1137181226,2446316249,160236650,2446316280,160236651,2446316251,2446316271,160236652,2446316250,2446316277,2446316272,2026800331],"tags":{"alt_name":"Bournemouth Main Line","electrified":"rail","frequency":"0","gauge":"1435","loading_gauge":"W10","maxspeed":"25 mph","name":"South Western Main Line","passenger":"national","railway":"rail","ref":"BML2","source":"Landsat","usage":"main","voltage":"750"}},{"type":"way","id":23798728,"nodes":[257888971,411285426,700544,319634,1871780454,319635,1871780455,815741480,811455947,319638],"tags":{"highway":"residential","lanes":"2","maxspeed":"30 mph","name":"Spring Crescent","surface":"asphalt"}},{"type":"way","id":25053177,"nodes":[658473,1852778308,29145248],"tags":{"highway":"unclassified","lanes":"2","maxspeed":"30 mph","maxweightrating:hgv":"7.5","maxweightrating:hgv:conditional":"none @ delivery","name":"Priory Road","surface":"asphalt"}},{"type":"way","id":27076135,"nodes":[297051254,9195637778,297053531,9483352964,297051563],"tags":{"highway":"primary","lit":"yes","maxspeed":"30 mph","name":"Charlotte Place","oneway":"yes","ref":"A335","surface":"asphalt"}},{"type":"way","id":27076941,"nodes":[300135840,297058713,9193663367,297058364],"tags":{"cycleway:left":"no","highway":"primary","lanes":"2","lit":"yes","maxspeed":"30 mph","name":"Brunswick Place","oneway":"yes","ref":"A3024","sidewalk":"left","surface":"asphalt"}},{"type":"way","id":27077016,"nodes":[254491,297058775,300135840],"tags":{"cycleway:left":"no","highway":"primary","lanes":"2","lit":"yes","maxspeed":"30 mph","name":"Brunswick Place","oneway":"yes","ref":"A3024","sidewalk":"left","surface":"asphalt"}},{"type":"way","id":27077071,"nodes":[254444,1014798264,9165874414,245149967,2388312325,8110432590,245150974,254456,6903891311,1047978800],"tags":{"highway":"tertiary","highway_authority_ref":"C506","lanes":"2","lit":"yes","maxspeed":"30 mph","name":"East Park Terrace","surface":"asphalt"}},{"type":"way","id":27117038,"nodes":[3750461312,3750461226,3750461315,297517816,3750461299,6472662967,3750461294],"tags":{"highway":"unclassified","maxspeed":"30 mph","oneway":"yes","source:maxspeed":"sign","surface":"asphalt"}},{"type":"way","id":27117124,"nodes":[297518087,6472662970,6472662968,6472662969],"tags":{"cycleway":"no","highway":"unclassified","lanes":"3","lit":"yes","maxspeed":"30 mph","name":"Western Esplanade","oneway":"yes","sidewalk":"left","source:maxspeed":"sign","surface":"asphalt"}},{"type":"way","id":27117320,"nodes":[297518087,300136348,9600711213,48958681],"tags":{"cycleway":"no","highway":"unclassified","lanes":"4","lit":"yes","maxspeed":"30 mph","name":"Western Esplanade","sidewalk":"both","source:maxspeed":"sign","surface":"asphalt"}},{"type":"way","id":27126434,"nodes":[297617261,1940450312,3750461273,3750461231,1015843283,3750461252,3750461278,3750461249],"tags":{"destination":"The West","highway":"tertiary","lanes":"2","maxspeed":"30 mph","oneway":"yes","surface":"asphalt"}},{"type":"way","id":27126482,"nodes":[8596812,2576496328,6472662964,8596749],"tags":{"cycleway":"no","highway":"primary","lanes":"4","lit":"yes","maxspeed":"30 mph","parking:lane:left":"no_parking","ref":"A3024","sidewalk":"both","surface":"asphalt"}},{"type":"way","id":27126535,"nodes":[3750461236,2573554967,297618512,8075508147,297619589,3750461268,3750461267],"tags":{"highway":"tertiary","highway_authority_ref":"C503","lanes":"2","maxspeed":"30 mph","name":"Civic Centre Road","oneway":"yes","parking:lane:left":"no_parking","surface":"asphalt"}},{"type":"way","id":27126570,"nodes":[297617261,3750461284,3750461261,331209713],"tags":{"cycleway:left":"no","highway":"tertiary","lanes":"1","maxspeed":"30 mph","name":"Civic Centre Road","oneway":"yes","surface":"asphalt"}},{"type":"way","id":27126592,"nodes":[254920,297618905,3750461263,297616999,3750461249],"tags":{"highway":"primary","lanes":"2","maxspeed":"30 mph","oneway":"yes","ref":"A3024","surface":"asphalt"}},{"type":"way","id":27126600,"nodes":[3750461236,3750461259,297617215,297619677,331209713],"tags":{"cycleway:left":"lane","highway":"tertiary","lanes":"1","maxspeed":"30 mph","name":"Portland Terrace","oneway":"yes","oneway:bicycle":"yes","surface":"asphalt"}},{"type":"way","id":27128754,"nodes":[1167799567,6475347995,27496129,3750461281,297619603,3733091519,297617261],"tags":{"highway":"tertiary","lanes":"3","maxspeed":"30 mph","name":"Portland Terrace","oneway":"yes","surface":"asphalt"}},{"type":"way","id":27134567,"nodes":[254758,8364222113,1137181203],"tags":{"bridge":"yes","bridge:name":"Northam Railway Bridge","highway":"primary","lanes":"2","layer":"1","maxspeed":"30 mph","maxweightrating:hgv":"7.5","name":"Northam Road","overtaking":"caution","parking:lane:both":"no_parking","ref":"A3024","shoulder":"no","surface":"asphalt"}},{"type":"way","id":27134882,"nodes":[3733091523,3733093926],"tags":{"highway":"tertiary","lanes":"2","maxspeed":"30 mph","oneway":"yes","surface":"asphalt"}},{"type":"way","id":27139715,"nodes":[254414,2023749716,1734977908,297797880],"tags":{"highway":"primary","lanes":"2","lit":"yes","maxspeed":"30 mph","name":"Brunswick Place","oneway":"yes","ref":"A3024","surface":"asphalt"}},{"type":"way","id":27142390,"nodes":[297797880,254901,297794980,2009842995,9494134726,297795092,9494134728,9494134727,657802],"tags":{"highway":"primary","lanes":"4","lit":"yes","maxspeed":"30 mph","name":"Brunswick Place","ref":"A3024","surface":"asphalt"}},{"type":"way","id":27142569,"nodes":[297798012,297798128],"tags":{"highway":"primary","lanes":"3","lit":"yes","maxspeed":"30 mph","name":"Cumberland Place","oneway":"yes","ref":"A3024","surface":"asphalt"}},{"type":"way","id":27142571,"nodes":[297797880,1734977903,8075065404,9494134731,297798012],"tags":{"highway":"primary","lanes":"2","lit":"yes","maxspeed":"30 mph","name":"Brunswick Place","oneway":"yes","ref":"A3024","surface":"asphalt"}},{"type":"way","id":27142610,"nodes":[297798015,9494134734,8075065407,3733097269,254379],"tags":{"highway":"primary","lanes":"3","lit":"yes","maxspeed":"30 mph","name":"Cumberland Place","oneway":"yes","ref":"A3024","surface":"asphalt"}},{"type":"way","id":27142753,"nodes":[297798128,7920789063,1734977905,254379],"tags":{"foot":"no","highway":"unclassified","lanes":"1","lit":"yes","maxspeed":"30 mph","name":"Bedford Place","oneway":"yes","sidewalk":"no","surface":"asphalt"}},{"type":"way","id":27143159,"nodes":[297803409,1885248611,8075508154,2576501260,297803557,5410458239,5410458245],"tags":{"highway":"primary","lanes":"2","lit":"yes","maxspeed":"30 mph","name":"Cumberland Place","oneway":"yes","ref":"A3024","surface":"asphalt"}},{"type":"way","id":27143162,"nodes":[297803597,300157888,297803711,9250339418,1921512433],"tags":{"highway":"primary","lanes":"2","maxspeed":"30 mph","name":"Havelock Road","oneway":"yes","ref":"A3024","surface":"asphalt"}},{"type":"way","id":27143237,"nodes":[297803409,254900,340526982,9420774204,20831096,9420774205,297798015],"tags":{"cycleway:both":"no","highway":"primary","lanes":"4","lit":"yes","maxspeed":"30 mph","name":"Cumberland Place","ref":"A3024","sidewalk":"both","surface":"asphalt"}},{"type":"way","id":27143324,"nodes":[5410458245,8075508157,297805155,297805197,5410458231,297805157,2303847995,297805684,297806192,297805160,254922],"tags":{"highway":"tertiary_link","lanes":"1","lit":"yes","maxspeed":"30 mph","oneway":"yes","surface":"asphalt"}},{"type":"way","id":27143387,"nodes":[297805607,8075508153,297805609,5410458232,5410458236,297805733],"tags":{"highway":"tertiary_link","lanes":"1","lit":"yes","maxspeed":"30 mph","oneway":"yes","surface":"asphalt"}},{"type":"way","id":27151302,"nodes":[297900873,254461],"tags":{"highway":"residential","lanes":"2","maxspeed":"30 mph","name":"Cedar Road","surface":"asphalt"}},{"type":"way","id":27333700,"nodes":[2026800383,3750461283,8596798],"tags":{"highway":"tertiary","highway_authority_ref":"C503","lanes":"2","lanes:psv":"1","maxspeed":"30 mph","name":"Civic Centre Road","oneway":"yes","surface":"asphalt"}},{"type":"way","id":28938556,"nodes":[331203498,9193807733,2513494449],"tags":{"highway":"unclassified","lanes":"2","maxspeed":"20 mph","name":"Hanover Buildings","parking:condition:left":"disabled","parking:lane:left":"parallel","parking:lane:left:parallel":"on_street","parking:lane:right":"no_parking"}},{"type":"way","id":30440039,"nodes":[20971199,8487444712,8487444714,8487444713,9196213226],"tags":{"highway":"unclassified","lanes":"2","maxspeed":"20 mph","name":"Hanover Buildings","surface":"asphalt"}},{"type":"way","id":30440044,"nodes":[21677588,21677589,21677590],"tags":{"highway":"unclassified","maxspeed":"20 mph","name":"Pound Tree Road","surface":"asphalt"}},{"type":"way","id":30440048,"nodes":[3143749048,8075065408,254410,2573572384,5007586078,966596016,2573572368,1885304032,657798],"tags":{"bus":"yes","highway":"unclassified","lanes":"2","maxspeed":"30 mph","motor_vehicle":"permit;delivery","name":"Above Bar Street","surface":"asphalt","taxi":"yes"}},{"type":"way","id":30785361,"nodes":[21677595,1022821614,6556863184],"tags":{"bus":"yes","highway":"unclassified","maxspeed":"20 mph","motor_vehicle":"permit","name":"Vincents Walk","taxi":"yes"}},{"type":"way","id":30785388,"nodes":[21615425,2217123865,2217123868,2217123871,349352455,1005257677,349352477,8075917128,8075917123],"tags":{"highway":"unclassified","maxspeed":"20 mph","name":"High Street"}},{"type":"way","id":31587091,"nodes":[353471598,8596813,493697508,5007586087,8596809,1878061027],"tags":{"highway":"primary","maxspeed":"30 mph","name":"Kingsway","oneway":"yes","ref":"A33","source":"Yahoo","surface":"asphalt"}},{"type":"way","id":31587092,"nodes":[26782576,353471598],"tags":{"bridge":"yes","highway":"primary","layer":"1","maxspeed":"30 mph","name":"Kingsway","oneway":"yes","ref":"A33","source":"Yahoo","surface":"asphalt"}},{"type":"way","id":31587096,"nodes":[353471729,8112256267],"tags":{"bridge":"yes","highway":"primary","layer":"1","maxspeed":"30 mph","name":"Kingsway","oneway":"yes","ref":"A33","source":"Yahoo","surface":"asphalt"}},{"type":"way","id":31587098,"nodes":[8112256267,8117379448,3873919802,3873918748],"tags":{"highway":"primary","maxspeed":"30 mph","name":"Kingsway","oneway":"yes","ref":"A33","surface":"asphalt"}},{"type":"way","id":36808959,"nodes":[427874301,427874303],"tags":{"highway":"residential","lanes":"2","maxspeed":"30 mph","name":"Verulam Road","surface":"asphalt"}},{"type":"way","id":41486967,"nodes":[254537,14726547,14726549,14726550,14726551,14726552,2005021232,254489,297057425,254882],"tags":{"highway":"primary","lanes":"2","maxspeed":"30 mph","name":"Dorset Street","old_ref":"A335","oneway":"yes","ref":"A33","surface":"asphalt"}},{"type":"way","id":41486968,"nodes":[25938547,2388403902,297051400,1734972207,14726571],"tags":{"abutters":"retail","highway":"primary","lit":"yes","maxspeed":"30 mph","name":"St Mary's Road","ref":"A335","surface":"asphalt"}},{"type":"way","id":46175536,"nodes":[588687824,1015843721,1015843281],"tags":{"cycleway:left":"no","highway":"unclassified","lanes":"2","lit":"yes","maxspeed":"30 mph","name":"Harbour Parade","oneway":"yes","sidewalk":"left","surface":"asphalt"}},{"type":"way","id":46175538,"nodes":[1015843250,588688092,1035890089,588687824],"tags":{"cycleway:left":"no","highway":"unclassified","lanes":"1","lit":"yes","maxspeed":"30 mph","name":"Harbour Parade","oneway":"yes","sidewalk":"left","surface":"asphalt"}},{"type":"way","id":48847156,"nodes":[254427,1047978825,9483318350,297829604],"tags":{"highway":"residential","lanes":"2","lit":"no","maxspeed":"30 mph","name":"Bellevue Terrace","sidewalk":"separate","surface":"asphalt"}},{"type":"way","id":51549290,"nodes":[7918490890,1094493348,9558807435,254563,254501,254504,1014815253],"tags":{"cycleway":"no","highway":"secondary","lanes":"2","maxspeed":"30 mph","name":"Belvidere Road","ref":"B3038","surface":"asphalt"}},{"type":"way","id":51549945,"nodes":[14726180,3873918752,3873918858,14726179,34278600,20973236],"tags":{"highway":"primary_link","lanes":"2","maxspeed":"30 mph","oneway":"yes","surface":"asphalt","turn:lanes":"through|through"}},{"type":"way","id":51549994,"nodes":[1565977990,297054857,297051603],"tags":{"abutters":"retail","highway":"residential","maxspeed":"30 mph","name":"St Mary's Road","oneway":"yes"}},{"type":"way","id":51549995,"nodes":[3750461308,6475336478,3750461298,8075508146,3733091517,3733091523],"tags":{"cycleway":"no","highway":"tertiary","lanes":"2","lit":"yes","maxspeed":"30 mph","oneway":"yes","sidewalk":"no","surface":"asphalt"}},{"type":"way","id":51753387,"nodes":[660508642,3873260094,3873260091],"tags":{"cycleway:left":"no","foot":"no","highway":"primary","lanes":"1","maxspeed":"30 mph","name":"Kingsway","oneway":"yes","ref":"A3024","surface":"asphalt","turn:lanes":"right"}},{"type":"way","id":51753388,"nodes":[8154448568,34278547,34278543,660508641,3873260083],"tags":{"bus:lanes":"designated|yes","highway":"tertiary","lanes":"2","lanes:bus":"1","maxspeed":"30 mph","name":"New Road","oneway":"yes"}},{"type":"way","id":51753390,"nodes":[3736286724,3736286723,1137181219,3873918745,34278534],"tags":{"bus:lanes":"designated|yes","foot":"no","highway":"tertiary","lanes":"2","lanes:bus":"1","lit":"yes","maxspeed":"30 mph","name":"New Road","oneway":"yes","parking:lane:left":"no_parking","surface":"asphalt"}},{"type":"way","id":51753391,"nodes":[3736286724,3873918743,3736286721],"tags":{"cycleway:left":"no","highway":"primary","lanes":"2","lit":"yes","maxspeed":"30 mph","oneway":"yes","ref":"A33","shoulder":"no","sidewalk":"no","surface":"asphalt"}},{"type":"way","id":51753394,"nodes":[245153002,3873260088,3873260091],"tags":{"cycleway:left":"no","highway":"primary","lanes":"2","maxspeed":"30 mph","name":"St Andrews Road","oneway":"yes","ref":"A33","surface":"asphalt","turn:lanes":"right|right"}},{"type":"way","id":51753396,"nodes":[660508644,3873918749,34278580],"tags":{"cycleway:left":"no","foot":"no","highway":"primary","lanes":"2","lit":"yes","maxspeed":"30 mph","name":"Northam Road","oneway":"yes","ref":"A3024","surface":"asphalt"}},{"type":"way","id":51753399,"nodes":[2470666625,20973240,245152607,3873918739,3736286718,3736286721],"tags":{"cycleway:left":"no","highway":"tertiary","lanes":"2","lit":"no","maxspeed":"30 mph","name":"New Road","oneway":"yes","parking:lane:left":"no_parking","surface":"asphalt"}},{"type":"way","id":55337486,"nodes":[695101336,8464378319,695101339,695101340,695101341,695101342,1664291929,2294107195,695101344],"tags":{"highway":"unclassified","lanes":"2","maxspeed":"30 mph","name":"Northam Road","surface":"asphalt"}},{"type":"way","id":56065735,"nodes":[267202590,1743636390,26447400,1743636415,26447399,1710023280,1710023293,1022200372,1022200408],"tags":{"highway":"residential","lanes":"2","lit":"yes","maxspeed":"20 mph","name":"Chantry Road","surface":"asphalt"}},{"type":"way","id":60024488,"nodes":[297805733,9250339419,8075508152,3161121044,17724233,2303847994,1168516335,469848,402741],"tags":{"highway":"tertiary","highway_authority_ref":"C502","lit":"yes","maxspeed":"30 mph","name":"Commercial Road","surface":"asphalt"}},{"type":"way","id":70077050,"nodes":[19890077,1852738501,19890083,518786,5198978012,1432333256,518785],"tags":{"highway":"unclassified","lanes":"2","maxspeed":"30 mph","name":"Horseshoe Bridge","surface":"asphalt"}},{"type":"way","id":70212602,"nodes":[25480534,9503131882,5198978321,9503131883,5198978017,25480487,7040911361,1964403710,9503131884,1964403708,1964403693,25480488,9503131885,1964403673,9503131889,9503131886,9503131887,9503131888,9503131890,1156450596,9503131891,25480489,9503131892,1156450717,1706176428,1964403396,1127644819],"tags":{"highway":"living_street","lit":"yes","maxspeed":"20 mph","name":"Radcliffe Road","surface":"asphalt"}},{"type":"way","id":70330081,"nodes":[1668566654,1094493384],"tags":{"cycleway":"no","highway":"secondary","lanes":"2","maxspeed":"30 mph","name":"Albert Road North","ref":"B3038","surface":"asphalt"}},{"type":"way","id":71848612,"nodes":[20831124,8450622804,3054723957,8450622805,9507887211,28343215,8450646428,8450622806,1094890495,28343216,8450622808,28343217],"tags":{"highway":"unclassified","lanes":"2","maxspeed":"30 mph","oneway":"no","surface":"asphalt"}},{"type":"way","id":79618433,"nodes":[1167799567,6475347994,9492537095,2576424197,9492537096,436281673,2388403896,2576424119,1632406185],"tags":{"cycleway":"no","highway":"tertiary","highway_authority_ref":"C506","lanes":"2","lit":"yes","maxspeed":"30 mph","name":"Portland Terrace","parking:lane:both":"no_parking","sidewalk:left":"yes","sidewalk:right":"separate","surface":"asphalt"}},{"type":"way","id":80524334,"nodes":[939382858,8472598126,939382860,3659118794,1015739585,8064192295,8059871610,254365],"tags":{"highway":"tertiary_link","maxspeed":"30 mph","oneway":"yes"}},{"type":"way","id":80633799,"nodes":[940486504,940487818,959169341,1094890504],"tags":{"highway":"unclassified","lanes":"2","maxspeed":"30 mph","motor_vehicle:conditional":"no @ (Fr 20:00-24:00; Sa 00:00-03:00,20:00-24:00; Su 00:00-03:00)","name":"Winchester Street","surface":"asphalt"}},{"type":"way","id":80634004,"nodes":[20831111,8450622802,2023749710,20831124],"tags":{"highway":"residential","lanes":"1","maxspeed":"30 mph","name":"Salisbury Street","oneway":"yes","surface":"asphalt"}},{"type":"way","id":80635646,"nodes":[2158263945,2463814839,29461242,29461241,1958479979,2463814838,29461240,1958479957,29461239,1958479947,29461238,1668579175],"tags":{"highway":"residential","maxspeed":"20 mph","name":"Cook Street"}},{"type":"way","id":80838366,"nodes":[8075640287,8064197170,1015739592,9481697417,6715613666,7170690317,1015739573],"tags":{"highway":"residential","maxspeed":"20 mph","name":"Rockstone Place","oneway":"yes","surface":"asphalt"}},{"type":"way","id":87347989,"nodes":[1665484009,8064197151,9146976479,8064197150,8504149750,1665484033,942545411,18101129,2014577790,8075065412],"tags":{"highway":"tertiary","highway_authority_ref":"C503","lanes":"3","lanes:backward":"2","lanes:forward":"1","lanes:psv:backward":"1","maxspeed":"30 mph","name":"London Road","surface":"asphalt"}},{"type":"way","id":90217913,"nodes":[254429,1665935866,268560410,1665935851,1665935858],"tags":{"highway":"tertiary","highway_authority_ref":"C502","lanes":"2","maxspeed":"30 mph","name":"Lodge Road","surface":"asphalt"}},{"type":"way","id":92149895,"nodes":[26447520,9558807432,254554,254556,6305289808,9558807430,254557,254558,254559,254560,9558807431,1094493266,7918490890],"tags":{"cycleway:both":"no","highway":"tertiary","highway_authority_ref":"C504","lanes":"2","maxspeed":"30 mph","maxspeed:type":"sign","name":"Belvidere Road","surface":"asphalt"}},{"type":"way","id":92661858,"nodes":[1668566572,1668566622,1668566667,1668566650,1156578339,26114350,1069862543,26575735,1156578398,1958653001,1958653062,2390568543,26114351,26114352,1878061026,2010282427,26114353,6614708545,6614708549,1014798261,6614708547,6614708544,29461229,26114354,29461222,29461216,26114355,29461214,9508968007],"tags":{"highway":"unclassified","highway_authority_ref":"C504","lanes":"2","maxspeed":"20 mph","name":"St Mary Street","sidewalk":"both","surface":"asphalt"}},{"type":"way","id":94159652,"nodes":[1094493384,254521,1022200505,254522,1668244971,2677381527,2677381525,2677381523],"tags":{"highway":"secondary","lanes":"2","maxspeed":"30 mph","name":"Albert Road North","ref":"B3038","surface":"asphalt"}},{"type":"way","id":98280744,"nodes":[1137181203,8504056869,8059871624,2470666641],"tags":{"highway":"primary","lanes":"2","maxspeed":"30 mph","maxweightrating:hgv":"7.5","name":"Northam Road","overtaking":"caution","parking:lane:both":"no_parking","ref":"A3024","source":"Yahoo","surface":"asphalt"}},{"type":"way","id":100026278,"nodes":[25480561,25480562],"tags":{"highway":"living_street","maxspeed":"20 mph","name":"Charliejoy Gardens"}},{"type":"way","id":104952666,"nodes":[319622,7011861544,7011861546,8060233030,319623],"tags":{"highway":"residential","lanes":"2","maxspeed":"30 mph","name":"Forster Road","sidewalk":"both","surface":"asphalt"}},{"type":"way","id":104952667,"nodes":[325698,319620],"tags":{"highway":"residential","lanes":"1","maxspeed":"20 mph","name":"Earls Road","oneway":"yes","surface":"asphalt"}},{"type":"way","id":104952668,"nodes":[1749464714,2290116139,319609,1664438279,1664438272,1664438300],"tags":{"highway":"residential","lanes":"2","maxspeed":"20 mph","name":"Earls Road","oneway":"yes","surface":"asphalt"}},{"type":"way","id":122572645,"nodes":[1664305347,1664317769],"tags":{"cycleway:both":"no","highway":"unclassified","lane_markings":"no","maxspeed":"30 mph","maxspeed:type":"sign","noname":"yes","source":"Bing","surface":"asphalt"}},{"type":"way","id":124258700,"nodes":[21677590,8075917132,8075917133,8075917121,285866],"tags":{"bus":"yes","highway":"unclassified","lanes":"2","maxspeed":"20 mph","motor_vehicle:conditional":"permit @ (08:00-18:00)","name":"Pound Tree Road","surface":"asphalt","taxi":"yes"}},{"type":"way","id":124540733,"nodes":[3750461308,6475336477,6475336476,3750461307,3733091516,3750461271,3750461269,254921],"tags":{"highway":"primary","lanes":"1","maxspeed":"30 mph","oneway":"yes","parking:lane:left":"no_parking","ref":"A3024","surface":"asphalt"}},{"type":"way","id":130661882,"nodes":[14726558,14726561,1665484517,14726562,9483318346,14726563,297049568,14726564,14726566,297049569,8064197152,14726568,9481697429,14726569,9481697428,9481697427,14727952],"tags":{"highway":"primary","lanes":"2","maxspeed":"30 mph","name":"Dorset Street","oneway":"yes","ref":"A33","surface":"asphalt"}},{"type":"way","id":131388091,"nodes":[9187648162,8075909715,668141888,8075909714,8487444709,21614657],"tags":{"highway":"tertiary","highway_authority_ref":"C506","lanes":"2","maxspeed":"30 mph","name":"Portland Terrace","parking:lane:both":"no_parking","surface":"asphalt"}},{"type":"way","id":131388092,"nodes":[9187648163,297645024],"tags":{"cycleway":"no","highway":"tertiary","highway_authority_ref":"C506","lanes":"2","layer":"-1","maxheight":"default","maxspeed":"30 mph","name":"Portland Terrace","parking:lane:both":"no_parking","surface":"asphalt","tunnel":"yes"}},{"type":"way","id":132845959,"nodes":[9579192264,48958687,9600713220,9600713222,9600713223,9600713224,9600713225,9600713226,9600713227,9600713228,9600713239,9600713229],"tags":{"highway":"unclassified","lanes":"1","maxspeed":"30 mph","name":"Western Esplanade","oneway":"yes","surface":"asphalt"}},{"type":"way","id":132845960,"nodes":[9600711216,9600713069,300136367],"tags":{"highway":"unclassified","lanes":"3","lanes:backward":"2","lanes:forward":"1","maxspeed":"30 mph","name":"Western Esplanade","surface":"asphalt"}},{"type":"way","id":139851196,"nodes":[3750461311,2576496369,6475347989,8075508137,8075508143,1921512433],"tags":{"cycleway":"no","highway":"primary","lanes":"4","lit":"yes","maxspeed":"30 mph","name":"Havelock Road","ref":"A3024","surface":"asphalt"}},{"type":"way","id":145415095,"nodes":[254366,3950309011,3950309024,3659118791,8472598123,8472598119,2377144840,14727983],"tags":{"highway":"primary","lanes":"1","maxspeed":"30 mph","name":"The Avenue","oneway":"yes","ref":"A33","sidewalk":"separate","surface":"asphalt"}},{"type":"way","id":149364531,"nodes":[3750461267,3750461232,696013182,9187648165,8075508149,297618468,297618638],"tags":{"highway":"tertiary","highway_authority_ref":"C503","lanes":"2","lit":"yes","maxspeed":"30 mph","name":"Civic Centre Road","oneway":"yes","parking:lane:left":"no_parking","surface":"asphalt"}},{"type":"way","id":149366587,"nodes":[285866,8075917119,8075917118,8075065413,297079373,299405924,349352481,9490461094,1316955497,9490461093,245149447,1311694261,3143749048],"tags":{"bus":"yes","highway":"unclassified","lanes":"2","maxspeed":"20 mph","motor_vehicle:conditional":"permit @ (08:00-18:00)","name":"Above Bar Street","surface":"asphalt","taxi":"yes"}},{"type":"way","id":149396556,"nodes":[7015241,254599,2337569655,1884505929,940481253,2337569653,2337569652,2337569651,427874320,254600,427874304,8706076136,2337569656,8064197168,260454117],"tags":{"highway":"tertiary","highway_authority_ref":"C502","maxspeed":"30 mph","name":"Archers Road"}},{"type":"way","id":149396571,"nodes":[297798128,8075065406,297807667,9494134735,297798015],"tags":{"highway":"primary","lanes":"2","lit":"yes","maxspeed":"30 mph","name":"Cumberland Place","oneway":"yes","ref":"A3024","surface":"asphalt"}},{"type":"way","id":149397378,"nodes":[254379,2023749717,8075065405,254414],"tags":{"highway":"primary","lanes":"3","lit":"yes","maxspeed":"30 mph","name":"Cumberland Place","oneway":"yes","ref":"A3024","surface":"asphalt"}},{"type":"way","id":149581046,"nodes":[6556863184,1014798250,1074897851,1022821621,20971199],"tags":{"highway":"unclassified","maxspeed":"20 mph","name":"Vincents Walk"}},{"type":"way","id":149645814,"nodes":[297618263,3750462840,9492537112,297617217,3750461295,297617218,6475347996,1167799567],"tags":{"cycleway:left":"lane","cycleway:left:lane":"advisory","highway":"tertiary","lanes":"1","maxspeed":"30 mph","name":"Portland Terrace","oneway":"yes","oneway:bicycle":"yes","surface":"asphalt"}},{"type":"way","id":149645817,"nodes":[297618263,3750461240,297617261],"tags":{"cycleway:left":"no","highway":"tertiary","highway_authority_ref":"C503","lanes":"3","maxspeed":"30 mph","name":"Civic Centre Road","oneway":"yes","surface":"asphalt"}},{"type":"way","id":151163132,"nodes":[8596786,8112256243,1668579178,8596778],"tags":{"highway":"primary","lanes":"2","maxspeed":"30 mph","name":"Evans Street","oneway":"yes","ref":"A33","source":"Yahoo","surface":"asphalt"}},{"type":"way","id":151167629,"nodes":[297805733,254922],"tags":{"highway":"tertiary","highway_authority_ref":"C502","lanes":"3","lit":"yes","maxspeed":"30 mph","name":"Commercial Road","surface":"asphalt"}},{"type":"way","id":151167630,"nodes":[20972815,9603559049,8112256242,26782585,2463814834,635145],"tags":{"highway":"primary","lanes":"2","maxspeed":"30 mph","name":"Evans Street","oneway":"yes","ref":"A33","source":"Yahoo","surface":"asphalt"}},{"type":"way","id":151168868,"nodes":[635145,2463814847,1071065099,301573,26575734,1071065112,301575,301576,1071065100,8112256271,245149210,1014798119,1014798406],"tags":{"highway":"primary","maxspeed":"30 mph","name":"St Mary's Place","oneway":"yes","ref":"A33","source":"Yahoo","surface":"asphalt"}},{"type":"way","id":151224036,"nodes":[635142,1014798413,2513494459],"tags":{"highway":"tertiary","highway_authority_ref":"C506","lanes":"2","maxspeed":"30 mph","name":"Palmerston Road","overtaking":"caution","parking:lane:both":"no_parking","surface":"asphalt"}},{"type":"way","id":153191972,"nodes":[14726571,9483318356,2005021309,9483318355,9483318352,9483318354,254427],"tags":{"abutters":"retail","highway":"primary","lit":"yes","maxspeed":"30 mph","name":"St Mary's Road","ref":"A335","surface":"asphalt"}},{"type":"way","id":153191973,"nodes":[297051254,297055583,1565977987,297054980],"tags":{"highway":"primary","lanes":"2","lit":"yes","maxspeed":"30 mph","name":"Charlotte Place","ref":"A335","surface":"asphalt"}},{"type":"way","id":153191974,"nodes":[297051563,1047978856,25938547],"tags":{"highway":"primary","lit":"yes","maxspeed":"30 mph","name":"St Mary's Road","oneway":"yes","ref":"A335","surface":"asphalt"}},{"type":"way","id":153789630,"nodes":[1664291983,2470666662,9503162854,1664291976,1664291951],"tags":{"highway":"primary","lanes":"2","maxspeed":"30 mph","name":"Northam Road","oneway":"yes","parking:lane:left":"no_parking","ref":"A3024","surface":"asphalt"}},{"type":"way","id":153789634,"nodes":[1664291999,1664291949,1664291959,1664291932,1664291972],"tags":{"highway":"primary","lanes":"4","maxspeed":"30 mph","name":"Northam Bridge","parking:lane:both":"no_parking","ref":"A3024","surface":"asphalt"}},{"type":"way","id":153791921,"nodes":[1664317769,1664317803,1664317810,1664317816,1664317764,1664317805,1664317741],"tags":{"cycleway":"no","highway":"primary","lanes":"2","maxspeed":"30 mph","name":"Northam Bridge","oneway":"yes","parking:lane:left":"no_parking","ref":"A3024","surface":"asphalt"}},{"type":"way","id":153798763,"nodes":[1664399007,1664399001,1664398931,1664398928,1664398934,1664398958,1664399013,1664398965,1664399012,1664399008,1664399023,1664398949,1664398954,1664398941,4931456,9586080054,1665472137,1665472136],"tags":{"cycleway":"no","highway":"primary","lanes":"2","lit":"yes","maxspeed":"40 mph","name":"Thomas Lewis Way","ref":"A335","sidewalk":"no","surface":"asphalt"}},{"type":"way","id":153801831,"nodes":[9266205,1664438251,1665473514,1664438260,1664438256,1664438225,1664438229,1664438252,1664438257,1664438281,1665941984],"tags":{"highway":"primary","lanes":"2","lit":"yes","maxspeed":"30 mph","name":"Thomas Lewis Way","ref":"A335","surface":"asphalt"}},{"type":"way","id":153816445,"nodes":[19890110,9503162853,2470666661,1664291983],"tags":{"highway":"primary","lanes":"2","maxspeed":"30 mph","name":"Northam Road","oneway":"yes","parking:lane:left":"no_parking","ref":"A3024","surface":"asphalt"}},{"type":"way","id":153817222,"nodes":[254760,2470666659,1971706027,1664291981,25440797],"tags":{"highway":"primary","lanes":"4","lanes:backward":"2","lanes:bus:backward":"1","lanes:forward":"2","maxspeed":"30 mph","name":"Northam Road","parking:lane:left":"no_parking","ref":"A3024","source":"Yahoo","surface":"asphalt"}},{"type":"way","id":153931259,"nodes":[1665479509,1665479506,1665479500,1665479507,1665479522,1665479527,1665479508,1665479513,1665479515,8148672985,1665480760,1665479502,1665479498,1665479514,1665479492,1665479520,266545967],"tags":{"highway":"residential","lanes":"2","maxspeed":"30 mph","name":"Peterborough Road","surface":"asphalt"}},{"type":"way","id":153931584,"nodes":[1665482232,1665482219,1665482230,1665482228,1665482213,1665482224,1665482234,1665482210,1665482237,1665482227,1665482216,1665482221,1665482226,1962449065,1665482217,1665482238,1665482209,1665482212,1665482231,1665482220,1665482225,1665482223],"tags":{"highway":"residential","lanes":"2","maxspeed":"30 mph","name":"Rockstone Lane","surface":"asphalt"}},{"type":"way","id":153931585,"nodes":[1665482233,1665482236,1665482218,1665482215,1665482223],"tags":{"highway":"residential","lanes":"2","maxspeed":"30 mph","name":"Rockstone Lane"}},{"type":"way","id":153931835,"nodes":[1665484012,1665484014,1665484011,1665484030,1665484032,1665484024,1665484013,7170690298,1665484009],"tags":{"highway":"tertiary","highway_authority_ref":"C503","lanes":"1","maxspeed":"30 mph","name":"London Road","oneway":"yes","surface":"asphalt"}},{"type":"way","id":153931836,"nodes":[14727953,1665484039,1665484020,1665484007,1665484040,1693324459],"tags":{"highway":"unclassified","lanes":"1","maxspeed":"30 mph","name":"College Place","oneway":"yes","surface":"asphalt"}},{"type":"way","id":153931837,"nodes":[1665484009,1665484036],"tags":{"highway":"tertiary","lanes":"2","lanes:psv":"1","maxspeed":"30 mph","name":"London Road","oneway":"yes","surface":"asphalt"}},{"type":"way","id":153979992,"nodes":[1665935858,1665935877,1665935853,1665935848,1665935881,1665935839,6916097422],"tags":{"highway":"tertiary_link","lanes":"1","maxspeed":"30 mph","oneway":"yes","surface":"asphalt"}},{"type":"way","id":153981003,"nodes":[254429,6916097412,6916097421,1665942005,6916097413,6916097418,1665941997],"tags":{"highway":"tertiary","lanes":"1","maxspeed":"30 mph","name":"Thomas Lewis Way","oneway":"yes","surface":"asphalt"}},{"type":"way","id":153983296,"nodes":[1665958200,1665958207,1665958202,1665954523,1665954504,1665954522,1665954458,1665954527,1665954471,1665954473,1665954493,1665954521,1665954468,1665954519,1665954454,1665954543,1665954569,1665954514,1665954510,1665954534,1665954478,1665954525,1665954460,1665954524,1665954488,1665954500,1665954558,1665954495,1665954550,1665954502,1665954464,1665954480,1665954549,1665954520,1665954455,7208308590,1665954484,1665954541,8959355863,1665954490,1665954456,1665954462,1665954486,1665979662,1665954547,1665954560,1665954498,1665954476,1665954538,1665954483,1665954526,1665954548,1665954466,1665954491,1665954532,1665954536,1665954545,1665954562,6702919281,1665954499,1665954512,1665954564,1665954566,1665954568,1665954528,1665954508,1665954518,1665954556],"tags":{"highway":"unclassified","lanes":"2","maxspeed":"30 mph","name":"Empress Road","surface":"asphalt"}},{"type":"way","id":153983768,"nodes":[1665958200,1665958208,1665958199,1979115310,9517175555,1665958197],"tags":{"highway":"unclassified","maxspeed":"30 mph","maxspeed:type":"sign","name":"Imperial Road"}},{"type":"way","id":153987222,"nodes":[1665975322,1665975323,1665975336,1665975324,1665975342,1665975315,1665975326,1665975328,1665975320,1665975304,1665975314,1665975309,1665975325,1665975333,1665975318,1665975316,1665975337,1665975339],"tags":{"highway":"unclassified","lanes":"2","maxspeed":"30 mph","name":"Drummond Drive","surface":"asphalt"}},{"type":"way","id":154186777,"nodes":[254527,3392729007,1667585509,4241447555,1667585543,1667585582,2332298054,1667585526,1667585557,1667585531,1667585555,1667585558,1667585575,1667585542,2397275738,1667585563,1667585578,1667585567,1667585525,1667585590,2331292095,1667585548,2429062877,1667585540,1667585530,1667585569,1667585580,2331292147,1667585568,1667585532,1667585562,1667585554,1667585589,1667585556,1667585529,6676168589,2331255205,1667585550,1667585522,1667585572,2331255279,1667585523,1667585574,1667585571,6676168587,1667585528,1667585510,2331255320,1667585512,1667585565,2339175967,1667585551,2339175968,1667585559,1667585527,4913498252,2331255322,1667585537,2331255324,1667585577,2339175969,1667585545,1667585583,7015241],"tags":{"highway":"tertiary","highway_authority_ref":"C502","lanes":"2","maxspeed":"30 mph","name":"Archers Road","surface":"asphalt"}},{"type":"way","id":154259348,"nodes":[1094493384,1668233737,1668233758,1668233757,1668233734,1668233760,1668233761,7695198425,1668233732,1668233748,1668233742,1668233731,1668233733,1668233755,20972793],"tags":{"cycleway:both":"no","highway":"tertiary","maxspeed":"30 mph","maxspeed:type":"sign","name":"Elm Terrace","source":"Bing","surface":"asphalt"}},{"type":"way","id":154259350,"nodes":[20972795,1668233738,1668233735,1668233752,7695198436,1668233744,1668233749,1668233736,1668233753,20972793],"tags":{"cycleway:both":"no","highway":"tertiary","lane_markings":"no","maxspeed":"30 mph","maxspeed:type":"sign","name":"Endle Street","source":"Bing","surface":"asphalt"}},{"type":"way","id":154260655,"nodes":[1668244982,9177183693,20972811,1668244999,1668244976,9500822513,301563],"tags":{"highway":"primary","maxspeed":"30 mph","oneway":"no","ref":"A33","surface":"asphalt"}},{"type":"way","id":154305691,"nodes":[1668566572,1668566673,1668566569,1668566592,1668566597,1668566544,1668566563,1668566627,1668566577,1668588293,1668566676,1668566690,1668566634,1668566603,1668566675,1668566637,1668566692,1668566649,1668566651,1668566593,1668566606,1668566550,1668566672,1668566595,1668566623,1668566574,1668566693,1668566567,1668566608,1668566625,31487479,1668566604,1668566671,1668644111],"tags":{"highway":"tertiary","highway_authority_ref":"C504","maxspeed":"20 mph","maxweightrating:hgv":"7.5","maxweightrating:hgv:conditional":"none @ destination","name":"Chapel Road"}},{"type":"way","id":154308594,"nodes":[20972815,8596778],"tags":{"highway":"tertiary","maxspeed":"30 mph","name":"St Mary Street","surface":"asphalt"}},{"type":"way","id":156094729,"nodes":[254444,245149859,1885248599,2470666621],"tags":{"highway":"tertiary","highway_authority_ref":"C503","lanes":"4","lanes:backward":"2","lanes:bus:forward":"1","lanes:forward":"2","maxspeed":"30 mph","maxweightrating:hgv":"7.5","name":"New Road","parking:lane:both":"no_parking","surface":"asphalt"}},{"type":"way","id":156319400,"nodes":[1664291999,1664291996,1664291961,27496134,695101336],"tags":{"highway":"primary","lanes":"2","maxspeed":"30 mph","name":"Northam Bridge","oneway":"yes","parking:lane:left":"no_parking","ref":"A3024","surface":"asphalt"}},{"type":"way","id":156860048,"nodes":[254381,8450646427,1035943669,9169951830,8450646424,430655,959169313,8450622813],"tags":{"cycleway:both":"no","highway":"unclassified","lanes":"2","maxspeed":"20 mph","name":"Bedford Place","surface":"asphalt"}},{"type":"way","id":157099074,"nodes":[8596778,1668579163,2642549690,6916973439,20972816,2463814829,1071065094,635146],"tags":{"highway":"primary","lanes":"2","maxspeed":"30 mph","name":"Evans Street","oneway":"yes","ref":"A33","source":"Yahoo","surface":"asphalt"}},{"type":"way","id":158420280,"nodes":[1805506979,9196001890,21420434,804831982,319640,1664416614,2388312327,319638,1664416593,2388488428,700538,1866020180,811455941],"tags":{"cycleway:both":"lane","cycleway:both:lane":"exclusive","highway":"tertiary","highway_authority_ref":"C502","lanes":"2","maxspeed":"30 mph","name":"Portswood Road","old_ref":"A335","surface":"asphalt"}},{"type":"way","id":161487119,"nodes":[635147,1069824592,635148,1668245013,702931931,9177183694,1668244982],"tags":{"cycleway":"opposite_track","cycleway:left":"shared_lane","highway":"primary","maxspeed":"30 mph","oneway":"yes","ref":"A33","surface":"asphalt"}},{"type":"way","id":161861384,"nodes":[20972812,6903857332,301577,5007586080,493697509,301578,2111661170,353471729],"tags":{"highway":"primary","maxspeed":"30 mph","name":"Kingsway","oneway":"yes","ref":"A33","source":"Yahoo","surface":"asphalt"}},{"type":"way","id":173637868,"nodes":[48958681,9600711214,1844109685,588687824],"tags":{"cycleway:both":"no","highway":"unclassified","lanes":"2","lit":"yes","maxspeed":"30 mph","name":"Harbour Parade","sidewalk":"both","source":"Bing","source:maxspeed":"sign","surface":"asphalt"}},{"type":"way","id":174607438,"nodes":[518784,2475859804,19890078,2475859805,518783,1432333254,1665954556,518782,1665975339,9586080056,1665975305,4931456],"tags":{"highway":"unclassified","lanes":"2","lit":"yes","maxspeed":"30 mph","name":"Horseshoe Bridge","surface":"asphalt"}},{"type":"way","id":174607442,"nodes":[19890081,518784],"tags":{"bridge":"yes","highway":"unclassified","lanes":"2","layer":"1","lit":"yes","maxspeed":"30 mph","name":"Horseshoe Bridge","surface":"asphalt"}},{"type":"way","id":177364069,"nodes":[1878061027,20972813,1014798356,6614708546,1016719732,1071065111,8112256270,1016719707,20972814,8596802,1016719421,1071065096,8596794,2463814836,493697510,2158261578,8596786],"tags":{"highway":"primary","maxspeed":"30 mph","name":"St Mary's Place","oneway":"yes","ref":"A33","source":"Yahoo","surface":"asphalt"}},{"type":"way","id":177534110,"nodes":[1014815253,254506,254507,7040911370,254509,7607513095,7040911362,6487362650,254510,7040911369,8123000985,19892128,1668566654],"tags":{"cycleway":"no","highway":"secondary","lanes":"2","maxspeed":"30 mph","name":"Marine Parade","ref":"B3038","surface":"asphalt"}},{"type":"way","id":178139017,"nodes":[1665935875,1885158741],"tags":{"highway":"residential","lanes":"2","maxspeed":"30 mph","name":"Lawn Road","surface":"asphalt"}},{"type":"way","id":178669147,"nodes":[1890179538,1890179555,1890179540],"tags":{"highway":"residential","maxspeed":"20 mph","name":"Howell Close"}},{"type":"way","id":178669148,"nodes":[26447518,1890179528,1890179532,1890179536,1890179556,1890179530,1890179554,1890179534,1890179557,1890179555],"tags":{"highway":"residential","maxspeed":"20 mph","name":"Howell Close"}},{"type":"way","id":179309648,"nodes":[518785,2475859803,19890082,2475859801,19890081],"tags":{"highway":"unclassified","lanes":"2","lit":"yes","maxspeed":"30 mph","name":"Horseshoe Bridge","surface":"asphalt"}},{"type":"way","id":179690991,"nodes":[19890110,8464378344,2470666664,1901146519,254586,9032784477,254591,1963613500,254593,2294177593,254594,1902189572,19892122,19892124],"tags":{"alt_name":"Prince's Street","highway":"tertiary","highway_authority_ref":"C504","lanes":"2","maxspeed":"30 mph","name":"Princes Street","surface":"asphalt"}},{"type":"way","id":181723675,"nodes":[254920,3733091523],"tags":{"highway":"tertiary","lanes":"2","maxspeed":"30 mph","oneway":"yes","surface":"asphalt"}},{"type":"way","id":183432094,"nodes":[6916097422,6916097420,254429],"tags":{"highway":"tertiary","highway_authority_ref":"C502","lanes":"2","lit":"yes","maxspeed":"30 mph","name":"Portswood Road","old_ref":"A335","surface":"asphalt"}},{"type":"way","id":183640651,"nodes":[3733091523,3733091522,254921],"tags":{"highway":"tertiary","lanes":"2","maxspeed":"30 mph","name":"Havelock Road","oneway":"yes","surface":"asphalt"}},{"type":"way","id":183773763,"nodes":[2576504159,3161121025,297711227,3161157224],"tags":{"cycleway:left":"lane","highway":"unclassified","lanes":"2","lit":"yes","maxspeed":"30 mph","name":"West Park Road","sidewalk":"separate","source":"Bing","surface":"asphalt"}},{"type":"way","id":184132218,"nodes":[297617261,6475336481,10222231,254920],"tags":{"destination":"Ring Road (north and east)","highway":"tertiary","lanes":"2","maxspeed":"30 mph","name":"Portland Terrace","oneway":"yes","surface":"asphalt"}},{"type":"way","id":185008000,"nodes":[1955836668,1955836671],"tags":{"highway":"residential","maxspeed":"20 mph"}},{"type":"way","id":185008002,"nodes":[26447404,1955836751,1955836668,1955836651],"tags":{"highway":"residential","maxspeed":"20 mph"}},{"type":"way","id":185010593,"nodes":[1955850941,1955850937,1955850936],"tags":{"highway":"residential","maxspeed":"20 mph"}},{"type":"way","id":185309441,"nodes":[1958746692,3736286689,26114356],"tags":{"highway":"unclassified","highway_authority_ref":"C504","lanes":"2","maxspeed":"20 mph","name":"St Mary Street","sidewalk":"both","surface":"block","traffic_calming":"table"}},{"type":"way","id":185309442,"nodes":[9508968007,1958746692],"tags":{"bridge":"yes","highway":"unclassified","highway_authority_ref":"C504","lanes":"2","layer":"1","maxspeed":"20 mph","maxweightrating":"7.5","name":"St Mary Street","sidewalk":"both","surface":"asphalt"}},{"type":"way","id":185769667,"nodes":[1964489289,1964489284],"tags":{"highway":"service","maxspeed":"20 mph"}},{"type":"way","id":185769669,"nodes":[1964489187,1964489192,1964489195,1964489256,1964489284,1964489299,1964489364,1964489357,8112256266,1964489421],"tags":{"highway":"service","maxspeed":"20 mph"}},{"type":"way","id":186951132,"nodes":[1363601549,1665472139],"tags":{"cycleway":"no","highway":"primary","lanes":"2","lit":"yes","maxspeed":"30 mph","name":"Thomas Lewis Way","ref":"A335","surface":"asphalt"}},{"type":"way","id":188134495,"nodes":[1664438300,1664438259,1664438269,1664438276],"tags":{"highway":"residential","lanes":"1","maxspeed":"20 mph","name":"Earls Road","oneway":"yes","surface":"asphalt"}},{"type":"way","id":192118490,"nodes":[2026800331,2446316257,2446316269,2446316287,2026800325],"tags":{"alt_name":"Bournemouth Main Line","electrified":"rail","frequency":"0","gauge":"1435","layer":"-1","maxspeed":"25 mph","name":"Southampton Tunnel","passenger":"national","passenger_lines":"2","railway":"rail","ref":"BML2","tunnel":"yes","tunnel:name":"Southampton Tunnel","usage":"main","voltage":"750"}},{"type":"way","id":201983711,"nodes":[34278576,8112256268,3873931791,26782576],"tags":{"highway":"primary","maxspeed":"30 mph","name":"Kingsway","oneway":"yes","ref":"A33","surface":"asphalt"}},{"type":"way","id":202007559,"nodes":[1664291951,1664291962,9503162857,1664291945,1693324443],"tags":{"cycleway:left":"separate","highway":"primary","lanes":"2","maxspeed":"30 mph","name":"Northam Road","oneway":"yes","parking:lane:left":"no_parking","ref":"A3024","surface":"asphalt"}},{"type":"way","id":208692652,"nodes":[20972789,1094493315,1955836740,1955836660,26447401,1743636400,267202590],"tags":{"highway":"residential","lanes":"2","lit":"yes","maxspeed":"20 mph","name":"Anderson's Road","surface":"asphalt"}},{"type":"way","id":211248179,"nodes":[25480488,25480566,2004019168,6021207469],"tags":{"highway":"living_street","maxspeed":"20 mph","name":"Augustine Road"}},{"type":"way","id":221356300,"nodes":[254922,2303847997,14743180,14743181,5410458250,8075508156,5410458233,17724275,5410458244,254899],"tags":{"highway":"primary","lanes":"2","lit":"yes","maxspeed":"30 mph","name":"Cumberland Place","oneway":"yes","ref":"A3024","surface":"asphalt"}},{"type":"way","id":221356301,"nodes":[254922,297806886,1074910945],"tags":{"highway":"tertiary","highway_authority_ref":"C502","lanes":"1","lit":"yes","maxspeed":"30 mph","name":"Commercial Road","oneway":"yes","surface":"asphalt"}},{"type":"way","id":221359923,"nodes":[254366,1045972184],"tags":{"highway":"tertiary","highway_authority_ref":"C502","maxspeed":"30 mph","surface":"asphalt"}},{"type":"way","id":227223914,"nodes":[2446316232,2446316292,2446316266,2446316284,2446316234,2446316224,2446316290,2446316229,2446316235,2446316238,2446316254,2446316243,2446316244,2446316231,2446316226,2446316237,2446316246,2446316228,2446316261,2446316241,2446316264,2446316293,2446091161,2446316268,2446091152,2446091149,2446091157,2446091159,2446091154,2446091163,2446094014,2446087830,4998734856],"tags":{"alt_name":"Bournemouth Main Line","electrified":"rail","frequency":"0","gauge":"1435","loading_gauge":"W10","maxspeed":"30 mph","name":"South Western Main Line","passenger":"national","railway":"rail","ref":"BML2","source":"Landsat","usage":"main","voltage":"750"}},{"type":"way","id":229082196,"nodes":[14727953,1665484012,862495,1015739580,1665484029],"tags":{"highway":"primary","lanes":"2","maxspeed":"30 mph","name":"The Avenue","oneway":"yes","ref":"A33","surface":"asphalt"}},{"type":"way","id":230826753,"nodes":[7812015652,9223921927,8117379445,254491],"tags":{"highway":"primary","junction":"roundabout","lanes":"3","lit":"yes","maxspeed":"30 mph","name":"Charlotte Place","oneway":"yes","surface":"asphalt"}},{"type":"way","id":230826754,"nodes":[254883,589854028,8455848572,8455848571,14726190],"tags":{"highway":"primary","junction":"roundabout","lanes":"2","lit":"yes","maxspeed":"30 mph","name":"Charlotte Place","oneway":"yes","surface":"asphalt"}},{"type":"way","id":230826757,"nodes":[14726190,14713527,297056369,6594262771,14713528],"tags":{"highway":"primary","junction":"roundabout","lanes":"4","lit":"yes","maxspeed":"30 mph","name":"Charlotte Place","oneway":"yes","surface":"asphalt"}},{"type":"way","id":231236385,"nodes":[657803,2005004291,8450622796,8450622794,657805],"tags":{"highway":"residential","lanes":"2","maxspeed":"30 mph","name":"Bellevue Road","surface":"asphalt"}},{"type":"way","id":231236386,"nodes":[657802,9494134729,254902,300135840],"tags":{"highway":"primary","lanes":"4","lit":"yes","maxspeed":"30 mph","name":"Brunswick Place","ref":"A3024","surface":"asphalt"}},{"type":"way","id":231236388,"nodes":[297058364,254880],"tags":{"highway":"primary","junction":"roundabout","lanes":"4","lit":"yes","maxspeed":"30 mph","name":"Charlotte Place","oneway":"yes","surface":"asphalt"}},{"type":"way","id":231236389,"nodes":[940485294,28343221,9146976487,2377144802,9146976486,2023749712,2009843082,5007452134,8075065403],"tags":{"highway":"tertiary","highway_authority_ref":"C503","lanes":"2","maxspeed":"30 mph","name":"London Road","surface":"asphalt"}},{"type":"way","id":232056204,"nodes":[254880,254881,9193663375,589854022,2005021203,297057385,254882],"tags":{"highway":"primary","junction":"roundabout","lanes":"2","lit":"yes","maxspeed":"30 mph","name":"Charlotte Place","oneway":"yes","surface":"asphalt"}},{"type":"way","id":232060275,"nodes":[14713528,1885248588,589854041,9193663372,14726187,301584],"tags":{"highway":"primary","junction":"roundabout","lanes":"2","lit":"yes","maxspeed":"30 mph","name":"Charlotte Place","oneway":"yes","surface":"asphalt"}},{"type":"way","id":233754058,"nodes":[2420929517,20831118,20831122],"tags":{"alt_name":"Upper Bannister Street","highway":"unclassified","maxspeed":"30 mph","name":"Upper Banister Street","note":"street name may have had wrong spelling?"}},{"type":"way","id":233754059,"nodes":[20831118,2014580236,2014580237,20831116],"tags":{"highway":"residential","maxspeed":"30 mph","name":"Handford Place"}},{"type":"way","id":233754060,"nodes":[20831122,20831121,2420929517,2014580249,1094890501],"tags":{"alt_name":"Upper Bannister Street","highway":"unclassified","maxspeed":"30 mph","name":"Upper Banister Street"}},{"type":"way","id":236555212,"nodes":[2445784056,2445784054,2445784040,2445784034,2445784033,2445784032,2445784030,2445784035,2445784036,2445784031,2445784051,2445784058,2445784038,2445784045,2445784028,2445784044,2445784027,2445784055,2445784048,2445784029,2445784037,2445784043],"tags":{"alt_name":"St Denys to Portcreek Junction Line","electrified":"rail","frequency":"0","gauge":"1435","maxspeed":"60 mph","name":"West Coastway Line","passenger":"regional","passenger_lines":"2","railway":"rail","ref":"SDP1","source":"Bing","usage":"main","voltage":"750"}},{"type":"way","id":236588623,"nodes":[4998734858,2446087842,2446091155,2566500939,2446091162],"tags":{"electrified":"rail","frequency":"0","gauge":"1435","loading_gauge":"W10","maxspeed":"30 mph","name":"Southampton Eastern Docks Branch","passenger":"local","railway":"rail","railway:traffic_mode":"freight","ref":"SOY","service":"spur","source":"Landsat","voltage":"750"}},{"type":"way","id":238558832,"nodes":[635145,5196411500,8596786],"tags":{"highway":"tertiary","maxspeed":"30 mph","name":"Houndwell Place","surface":"asphalt"}},{"type":"way","id":238558833,"nodes":[8596778,1668579200,1668579182,1958458590,1668579180,1668579175,1668566691,1668566565,1668566687,1668566688,1668566689,1668566572],"tags":{"highway":"tertiary","highway_authority_ref":"C504","maxspeed":"20 mph","name":"St Mary Street"}},{"type":"way","id":238909719,"nodes":[14744291,8075514938,267198585,3750461316,2467156380,3750461264,14744289,14744288,14744287,4616100927],"tags":{"cycleway":"no","highway":"primary","lanes":"2","lit":"yes","maxspeed":"30 mph","name":"Western Esplanade","oneway":"yes","parking:lane:left":"no_parking","ref":"A3024","surface":"asphalt"}},{"type":"way","id":239265805,"nodes":[1664305347,1664291992,8464375110,2513494481,1664291995],"tags":{"cycleway":"no","highway":"primary","lanes":"2","maxspeed":"30 mph","name":"Northam Bridge","oneway":"yes","parking:lane:left":"no_parking","ref":"A3024","surface":"asphalt"}},{"type":"way","id":239265806,"nodes":[1664291995,8464378324,1664291928,1664291985,1664291940,25440793,1664317769],"tags":{"cycleway":"no","highway":"primary","lanes":"2","maxspeed":"30 mph","name":"Northam Bridge","oneway":"yes","parking:lane:left":"no_parking","ref":"A3024","surface":"asphalt"}},{"type":"way","id":239265808,"nodes":[1664305312,6769240429,1664305256,1664305347],"tags":{"cycleway":"no","highway":"primary","lanes":"3","maxspeed":"30 mph","name":"Northam Bridge","oneway":"yes","parking:lane:left":"no_parking","ref":"A3024","surface":"asphalt"}},{"type":"way","id":239265817,"nodes":[297618638,3750461237,297618431,8075065410,2026800383],"tags":{"cycleway:left":"share_busway","highway":"tertiary","highway_authority_ref":"C503","lanes":"2","lanes:psv":"1","maxspeed":"30 mph","name":"Civic Centre Road","oneway":"yes","parking:lane:left":"no_parking","surface":"asphalt"}},{"type":"way","id":239265828,"nodes":[589899994,8075065411,8075065409,3143749048],"tags":{"highway":"tertiary","highway_authority_ref":"C503","lanes":"3","lanes:backward":"1","lanes:bus:forward":"1","lanes:forward":"2","maxspeed":"30 mph","name":"New Road","overtaking":"caution","parking:lane:both":"no_parking","surface":"asphalt"}},{"type":"way","id":239265829,"nodes":[2470666621,9622062084,245148562,9622062085,589899965,9165874415,1316955496,254445,9051510042,589899994],"tags":{"highway":"tertiary","highway_authority_ref":"C503","lanes":"4","lanes:backward":"2","lanes:bus:backward":"1","lanes:bus:forward":"1","lanes:forward":"2","maxspeed":"30 mph","maxweightrating:hgv":"7.5","name":"New Road","overtaking":"caution","parking:lane:both":"no_parking","surface":"asphalt"}},{"type":"way","id":239265830,"nodes":[1137181208,8596789],"tags":{"highway":"primary","lanes":"2","maxspeed":"30 mph","maxweightrating:hgv":"7.5","name":"Northam Road","oneway":"yes","parking:lane:left":"no_parking","ref":"A3024","surface":"asphalt"}},{"type":"way","id":239265831,"nodes":[2470666651,2470666642],"tags":{"highway":"primary","lanes":"2","maxspeed":"30 mph","maxweightrating:hgv":"7.5","name":"Northam Road","oneway":"yes","ref":"A3024","source":"Yahoo","surface":"asphalt"}},{"type":"way","id":239265832,"nodes":[8596789,8504056875,9503162837,2470666630],"tags":{"highway":"primary","lanes":"2","lanes:bus":"1","maxspeed":"30 mph","maxweightrating:hgv":"7.5","name":"Northam Road","oneway":"yes","ref":"A3024","surface":"asphalt"}},{"type":"way","id":239265833,"nodes":[1693324443,1664291963,1664291952,1664291997,1664291999],"tags":{"highway":"primary","lanes":"2","maxspeed":"30 mph","name":"Northam Bridge","oneway":"yes","parking:lane:left":"no_parking","ref":"A3024","surface":"asphalt"}},{"type":"way","id":239265835,"nodes":[2470666655,9503162845,8059871622,8059871623,8464378387,254760],"tags":{"highway":"primary","lanes":"4","lanes:backward":"2","lanes:bus:backward":"1","lanes:forward":"2","maxspeed":"30 mph","name":"Northam Road","parking:lane:left":"no_parking","ref":"A3024","surface":"asphalt"}},{"type":"way","id":239265836,"nodes":[2470666642,2470666641],"tags":{"highway":"primary","lanes":"1","maxspeed":"30 mph","maxweightrating:hgv":"7.5","name":"Northam Road","oneway":"yes","ref":"A3024","source":"Yahoo","surface":"asphalt"}},{"type":"way","id":239265837,"nodes":[2470666644,8504056868,2470666648,254759],"tags":{"highway":"primary","lanes":"3","maxspeed":"30 mph","maxweightrating:hgv":"7.5","name":"Northam Road","oneway":"yes","parking:lane:left":"no_parking","ref":"A3024","source":"Yahoo","surface":"asphalt"}},{"type":"way","id":239265838,"nodes":[2470666641,2470666644],"tags":{"highway":"primary","lanes":"1","maxspeed":"30 mph","maxweightrating:hgv":"7.5","name":"Northam Road","oneway":"yes","parking:lane:left":"no_parking","ref":"A3024","source":"Yahoo","surface":"asphalt"}},{"type":"way","id":239265839,"nodes":[695101336,2470666665,19890110],"tags":{"highway":"primary","lanes":"3","maxspeed":"30 mph","name":"Northam Road","oneway":"yes","parking:lane:left":"no_parking","ref":"A3024","surface":"asphalt","turn:lanes":"left|through|through;right"}},{"type":"way","id":239265840,"nodes":[2470666655,8504056883,2470666652,8504056864,2470666651],"tags":{"highway":"primary","lanes":"2","maxspeed":"30 mph","name":"Northam Road","oneway":"yes","ref":"A3024","surface":"asphalt"}},{"type":"way","id":239265841,"nodes":[8154448568,34278593,3873260086,2470666631,3873260091],"tags":{"highway":"primary","lanes":"2","maxspeed":"30 mph","name":"Northam Road","oneway":"yes","ref":"A3024"}},{"type":"way","id":239265842,"nodes":[2470666630,3736286712,1983397818,8596782],"tags":{"highway":"primary","lanes":"3","lanes:bus":"1","maxspeed":"30 mph","maxweightrating:hgv":"7.5","name":"Northam Road","oneway":"yes","ref":"A3024","source":"Yahoo","surface":"asphalt"}},{"type":"way","id":239265844,"nodes":[3873918738,9501402676,3873918746,34278587,3736286715,254757],"tags":{"highway":"primary","lanes":"2","maxspeed":"30 mph","name":"Northam Road","oneway":"yes","ref":"A3024","surface":"asphalt"}},{"type":"way","id":239265846,"nodes":[254757,3736286714,1983397821,1137181206,245154220,1137181208],"tags":{"highway":"primary","lanes":"2","maxspeed":"30 mph","maxweightrating:hgv":"7.5","name":"Northam Road","oneway":"yes","ref":"A3024","surface":"asphalt"}},{"type":"way","id":239265847,"nodes":[254759,2470666653],"tags":{"highway":"primary","lanes":"2","maxspeed":"30 mph","name":"Northam Road","oneway":"yes","parking:lane:left":"no_parking","ref":"A3024","source":"Yahoo","surface":"asphalt"}},{"type":"way","id":239265848,"nodes":[25440797,1664291964,1963623524,1664291974,1977108931,1664291983],"tags":{"highway":"primary","lanes":"4","lanes:backward":"2","lanes:forward":"2","maxspeed":"30 mph","name":"Northam Road","parking:lane:left":"no_parking","ref":"A3024","surface":"asphalt"}},{"type":"way","id":239265855,"nodes":[1693324443,695101336],"tags":{"highway":"unclassified","lanes":"2","maxspeed":"30 mph","name":"Northam Road","surface":"asphalt"}},{"type":"way","id":239265859,"nodes":[3873918738,8504056872,2470666634,8504056873,2470666636,2470666637],"tags":{"highway":"unclassified","lanes":"1","maxspeed":"30 mph","oneway":"yes","parking:lane:left":"no_parking"}},{"type":"way","id":239265861,"nodes":[2470666637,2470666638,3736286713,1983397822,8504056871,2470666635,8504056874,1137181208],"tags":{"bus:lanes":"designated","highway":"service","lanes":"1","maxspeed":"30 mph","motor_vehicle":"no","oneway":"yes","parking:lane:left":"no_parking","psv":"yes","service":"bus","vehicle":"no"}},{"type":"way","id":243101794,"nodes":[3873918748,34278520,3736286716,3736286724],"tags":{"foot":"no","highway":"primary","lanes":"2","maxspeed":"30 mph","name":"Kingsway","oneway":"yes","ref":"A33","surface":"asphalt"}},{"type":"way","id":243994299,"nodes":[2513494432,1074885139,21615423,21614662,21615426,1005257686,1035872915,668141884,1035872958,1094730337,8487444704,9490461092,1069824547,8487444705,8487444706,9579241658],"tags":{"highway":"tertiary","lanes":"2","maxspeed":"30 mph","name":"Castle Way","parking:lane:both":"no_parking","surface":"asphalt"}},{"type":"way","id":243994300,"nodes":[4498813872,2513494446,331203498],"tags":{"highway":"unclassified","lanes":"1","maxspeed":"20 mph","name":"Hanover Buildings","oneway":"yes","parking:lane:both":"no_parking"}},{"type":"way","id":243994301,"nodes":[331203498,8061384135,245148772],"tags":{"highway":"unclassified","lanes":"1","maxspeed":"20 mph","name":"Hanover Buildings","oneway":"yes","parking:lane:both":"no_parking"}},{"type":"way","id":243994302,"nodes":[2513494449,331202369,1014798157,8487444715,20971199],"tags":{"highway":"unclassified","lanes":"2","maxspeed":"20 mph","name":"Hanover Buildings","parking:lane:both":"no_parking"}},{"type":"way","id":243994303,"nodes":[2513494464,2513494463],"tags":{"highway":"tertiary","highway_authority_ref":"C506","lanes":"2","maxspeed":"30 mph","name":"Palmerston Road","overtaking":"caution","parking:lane:left":"parallel","parking:lane:left:parallel":"on_street","parking:lane:right":"no_parking","surface":"asphalt"}},{"type":"way","id":243994304,"nodes":[2513494463,2513494462,635142],"tags":{"highway":"tertiary","highway_authority_ref":"C506","lanes":"2","maxspeed":"30 mph","name":"Palmerston Road","overtaking":"caution","parking:lane:both":"no_parking","surface":"asphalt"}},{"type":"way","id":243994305,"nodes":[2513494459,20971165,2513494458],"tags":{"highway":"tertiary","highway_authority_ref":"C506","lanes":"2","maxspeed":"30 mph","name":"Palmerston Road","overtaking":"caution","parking:lane:left":"parallel","parking:lane:left:parallel":"on_street","parking:lane:right":"no_parking","surface":"asphalt"}},{"type":"way","id":243994306,"nodes":[2513494458,245148868,2513494456],"tags":{"highway":"tertiary","highway_authority_ref":"C506","lanes":"2","maxspeed":"30 mph","name":"Palmerston Road","overtaking":"caution","parking:lane:both":"no_parking","surface":"asphalt"}},{"type":"way","id":243994307,"nodes":[2513494456,9193807738,2513494454,940514396],"tags":{"highway":"tertiary","highway_authority_ref":"C506","lanes":"1","maxspeed":"30 mph","name":"Palmerston Road","oneway":"yes","parking:lane:both":"no_parking","surface":"asphalt"}},{"type":"way","id":243994308,"nodes":[940514386,2513494452,2513494456],"tags":{"highway":"tertiary","highway_authority_ref":"C506","lanes":"1","maxspeed":"30 mph","name":"Palmerston Road","oneway":"yes","parking:lane:both":"no_parking","surface":"asphalt"}},{"type":"way","id":243994309,"nodes":[254444,1037511914,2513494480,635141],"tags":{"cycleway:both":"no","highway":"tertiary","highway_authority_ref":"C506","lanes":"3","lanes:backward":"2","lanes:forward":"1","lit":"yes","maxspeed":"30 mph","name":"Palmerston Road","parking:lane:both":"no_parking","sidewalk":"both","surface":"asphalt"}},{"type":"way","id":243994310,"nodes":[1699718491,48958647,2513494467,1014798242,2513494464],"tags":{"highway":"tertiary","highway_authority_ref":"C506","lanes":"2","maxspeed":"30 mph","name":"Palmerston Road","parking:lane:left":"restricted_parking","parking:lane:right":"no_parking","surface":"asphalt"}},{"type":"way","id":243994311,"nodes":[1167799544,9492537102,431117655,9492537101,6475347998,20698070,1446110958,9187648163],"tags":{"cycleway":"no","highway":"tertiary","highway_authority_ref":"C506","lanes":"2","maxspeed":"30 mph","name":"Portland Terrace","parking:lane:both":"no_parking","surface":"asphalt"}},{"type":"way","id":243994312,"nodes":[1632406185,1167799547,20698065,1167799544],"tags":{"cycleway":"no","highway":"tertiary","highway_authority_ref":"C506","lanes":"3","lanes:backward":"1","lanes:forward":"2","lit":"yes","maxspeed":"30 mph","name":"Portland Terrace","parking:lane:both":"no_parking","surface":"asphalt"}},{"type":"way","id":243994316,"nodes":[2513494438,2513494437],"tags":{"highway":"tertiary","highway_authority_ref":"C506","lanes":"1","maxspeed":"30 mph","name":"Queensway","oneway":"yes","parking:condition:left":"disabled","parking:lane:left":"parallel","parking:lane:left:parallel":"on_street","parking:lane:right":"no_parking","surface":"asphalt"}},{"type":"way","id":243994317,"nodes":[2513494435,2513494434],"tags":{"highway":"tertiary","highway_authority_ref":"C506","lanes":"1","maxspeed":"30 mph","name":"Queensway","oneway":"yes","parking:condition:left":"free","parking:lane:left":"parallel","parking:lane:left:parallel":"on_street","surface":"asphalt"}},{"type":"way","id":243994319,"nodes":[2513494433,349352453,2513494434],"tags":{"highway":"tertiary","highway_authority_ref":"C506","lanes":"2","maxspeed":"30 mph","name":"Queensway","overtaking":"caution","parking:lane:right":"parallel","parking:lane:right:parallel":"on_street","surface":"asphalt"}},{"type":"way","id":243994320,"nodes":[2513494434,7832550616,13885349,2513494439],"tags":{"highway":"tertiary","highway_authority_ref":"C506","lanes":"1","maxspeed":"30 mph","name":"Queensway","oneway":"yes"}},{"type":"way","id":243994321,"nodes":[2513494437,2513494436,7832550620,2513494435],"tags":{"highway":"tertiary","highway_authority_ref":"C506","lanes":"1","maxspeed":"30 mph","name":"Queensway","oneway":"yes"}},{"type":"way","id":243994322,"nodes":[2513494439,655993823,7832550619,940514346],"tags":{"highway":"tertiary","highway_authority_ref":"C506","lanes":"2","maxspeed":"30 mph","name":"Queensway","oneway":"yes","parking:lane:both":"no_parking","surface":"asphalt"}},{"type":"way","id":243994323,"nodes":[940514336,9193807737,2513494443,2513494441,2513494438],"tags":{"highway":"tertiary","highway_authority_ref":"C506","lanes":"2","maxspeed":"30 mph","name":"Queensway","oneway":"yes","parking:lane:both":"no_parking","surface":"asphalt"}},{"type":"way","id":243994324,"nodes":[2513494430,1074846192,296585508,2513494433],"tags":{"highway":"tertiary","highway_authority_ref":"C506","lanes":"2","maxspeed":"30 mph","name":"Queensway","overtaking":"caution","parking:lane:both":"parallel","parking:lane:both:parallel":"on_street","surface":"asphalt"}},{"type":"way","id":250155794,"nodes":[2445985842,2445985847,2445995576,2445995570,2445995588,2445995571,2445995566,2445995577,2445995574,2445995585,2442020473,2359387526,9293992589],"tags":{"alt_name":"Bournemouth Main Line","electrified":"rail","frequency":"0","gauge":"1435","loading_gauge":"W10","maxspeed":"75 mph","name":"South Western Main Line","passenger":"national","railway":"rail","ref":"BML1","source":"Landsat","usage":"main","voltage":"750"}},{"type":"way","id":273265171,"nodes":[14726189,8117379444,9193663374,297057553,14726190],"tags":{"highway":"primary","lanes":"2","lit":"yes","maxspeed":"30 mph","name":"Charlotte Place","oneway":"yes","ref":"A335","surface":"asphalt"}},{"type":"way","id":273265172,"nodes":[254882,254883],"tags":{"highway":"primary","junction":"roundabout","lanes":"3","lit":"yes","maxspeed":"30 mph","name":"Charlotte Place","oneway":"yes","surface":"asphalt"}},{"type":"way","id":300702640,"nodes":[8061329427,966596029,2573554962,2573554954,2573554966,9573747359,9490311797,18232073],"tags":{"cycleway":"no","highway":"unclassified","lanes":"1","maxspeed":"30 mph","motor_vehicle":"permit","name":"West Marlands Road","oneway":"yes","oneway:bicycle":"no","surface":"paving_stones"}},{"type":"way","id":300705341,"nodes":[254365,3659118793,260454116,254366],"tags":{"highway":"tertiary","highway_authority_ref":"C502","maxspeed":"30 mph","name":"Banister Road"}},{"type":"way","id":300708550,"nodes":[260454117,8064197169,7170690309,254601],"tags":{"highway":"tertiary","highway_authority_ref":"C502","maxspeed":"30 mph","name":"Archers Road"}},{"type":"way","id":300708552,"nodes":[254461,29026819,29026822,310889],"tags":{"highway":"residential","lanes":"2","maxspeed":"30 mph","name":"Cedar Road","surface":"asphalt"}},{"type":"way","id":300708553,"nodes":[254461,2293461278,9498809448,658450,325643,325642,1701085796,9180396686,25303945,1045972149,3950309031,1045972184],"tags":{"highway":"tertiary","highway_authority_ref":"C502","maxspeed":"30 mph","name":"Lodge Road","surface":"asphalt"}},{"type":"way","id":300708559,"nodes":[1665484029,245145464,7170690318,8064197154,340526949,1015739573,14727982,8064197157,1015739567,14727999,14727971,254601,7170690305,14727959,7946449009,939382858,3659118792,3659118787,254366],"tags":{"highway":"primary","lanes":"3","lanes:psv":"1","maxspeed":"30 mph","name":"The Avenue","oneway":"yes","ref":"A33","surface":"asphalt"}},{"type":"way","id":300710520,"nodes":[160233334,1958701563,1958701564,8300778628,2010288724,1958701595,1958701607,1958701655,1958701679,1958701739,160233335,160233336,26114364],"tags":{"highway":"residential","maxspeed":"20 mph","name":"Golden Grove"}},{"type":"way","id":300710521,"nodes":[26114364,297386409,26114363,1958701809,297386496,26114362,1958701829,26114361,26114360,1958701804,160233337,1958701792,297386514,26114359,1958701730,1958701689,1958701649,26114358],"tags":{"highway":"residential","maxspeed":"20 mph","name":"Golden Grove"}},{"type":"way","id":300710523,"nodes":[1014798406,20972812],"tags":{"highway":"primary","maxspeed":"30 mph","name":"St Mary's Place","oneway":"yes","ref":"A33","source":"Yahoo","surface":"asphalt"}},{"type":"way","id":300713087,"nodes":[1664317741,1664317729,2470666679,1664317814,1664317796,1664317762,1664317757,1664317819],"tags":{"cycleway":"no","highway":"primary","lanes":"2","maxspeed":"30 mph","name":"Bitterne Road West","oneway":"yes","parking:lane:left":"no_parking","ref":"A3024","surface":"asphalt"}},{"type":"way","id":300713092,"nodes":[2470666653,8059871621,2470666655],"tags":{"highway":"primary","lanes":"2","maxspeed":"30 mph","name":"Northam Road","oneway":"yes","parking:lane:left":"no_parking","ref":"A3024","surface":"asphalt"}},{"type":"way","id":301042438,"nodes":[9214419039,2377144787,254412,2392965760,9146976489,245150395,657798],"tags":{"highway":"unclassified","lanes":"2","lit":"yes","maxspeed":"30 mph","name":"Above Bar Street","surface":"asphalt"}},{"type":"way","id":301042439,"nodes":[5410458245,5410458248,297803559,3733091513,297803560,297803600,1074910945],"tags":{"highway":"primary","lanes":"2","lit":"yes","maxspeed":"30 mph","name":"Cumberland Place","oneway":"yes","ref":"A3024","surface":"asphalt"}},{"type":"way","id":310937888,"nodes":[254491,6594272505,1885248602,9193663368,297058364],"tags":{"highway":"primary","junction":"roundabout","lanes":"3","lit":"yes","maxspeed":"30 mph","name":"Charlotte Place","oneway":"yes","surface":"asphalt"}},{"type":"way","id":310937894,"nodes":[34278580,245152655,14726178,14726177,8075514950,301582,8075514949,8075514948,14726185],"tags":{"highway":"primary","lanes":"2","maxspeed":"30 mph","name":"St Andrews Road","oneway":"yes","ref":"A33","surface":"asphalt"}},{"type":"way","id":310937895,"nodes":[14726185,301583,9193663371,1047978797,297060793,301584],"tags":{"highway":"primary","maxspeed":"30 mph","name":"St Andrews Road","oneway":"yes","ref":"A33","source":"Yahoo","surface":"asphalt"}},{"type":"way","id":316512481,"nodes":[1664305211,1664305284,1664305312],"tags":{"cycleway":"no","highway":"primary","lanes":"2","maxspeed":"30 mph","name":"Northam Bridge","oneway":"yes","parking:lane:left":"no_parking","ref":"A3024","surface":"asphalt"}},{"type":"way","id":318496851,"nodes":[1664317819,1664317759,1664317771,1664317792,1664317802,1664317823,1664317831,6487520127,1664317747,1664317838,7080787362,1664317832,7080787394,8464375109],"tags":{"cycleway":"no","highway":"primary","lanes":"2","maxspeed":"30 mph","name":"Bitterne Road West","oneway":"yes","parking:lane:left":"no_parking","ref":"A3024","surface":"asphalt"}},{"type":"way","id":340093264,"nodes":[3472996902,19890068,1665935842,19890066,1665935875,608184],"tags":{"highway":"residential","lanes":"2","maxspeed":"30 mph","name":"Lawn Road","surface":"asphalt"}},{"type":"way","id":361380145,"nodes":[8075640279,8075640277,8075640302],"tags":{"highway":"residential","lanes":"2","maxspeed":"20 mph","name":"Bedford Place","surface":"asphalt"}},{"type":"way","id":361437526,"nodes":[1045972184,3659118788,14727979,2377144833,7946449010,324343,6676138237,254602,2377144828,8064197165,1015739562,14727969,14727997,8064197148,340526946,9481697420,14727981,862475,245145766,7170690321,7170690322,14727952],"tags":{"highway":"primary","lanes":"2","lit":"yes","maxspeed":"30 mph","name":"The Avenue","oneway":"yes","ref":"A33","surface":"asphalt"}},{"type":"way","id":369525103,"nodes":[3733058462,2576496409,657799],"tags":{"highway":"unclassified","lanes":"2","lit":"yes","maxspeed":"30 mph","name":"West Park Road","sidewalk":"separate","surface":"asphalt"}},{"type":"way","id":369529585,"nodes":[1921512433,1921512435,3733091514],"tags":{"cycleway:left":"lane","highway":"primary","lanes":"2","maxspeed":"30 mph","name":"Havelock Road","oneway":"yes","ref":"A3024","surface":"asphalt"}},{"type":"way","id":369529586,"nodes":[3733091514,9250339422,657799],"tags":{"highway":"primary","lanes":"2","maxspeed":"30 mph","name":"Havelock Road","oneway":"yes","ref":"A3024","surface":"asphalt"}},{"type":"way","id":369545715,"nodes":[300062262,3733240224,3733240625],"tags":{"bus":"local","highway":"unclassified","lanes":"2","maxspeed":"20 mph","motor_vehicle":"permit","name":"Hanover Buildings","surface":"asphalt"}},{"type":"way","id":369890235,"nodes":[3736286688,3873926171,9501402668,3873931791,8117379448],"tags":{"highway":"unclassified","maxspeed":"30 mph","name":"Northam Road"}},{"type":"way","id":369890236,"nodes":[3736286686,26114356,3736286688],"tags":{"highway":"unclassified","maxspeed":"20 mph","name":"Northam Road","surface":"block","traffic_calming":"table"}},{"type":"way","id":369890242,"nodes":[34278576,3736286730,3873926167,3873926170,3873926171],"tags":{"highway":"unclassified","lanes":"1","maxspeed":"30 mph","oneway":"yes"}},{"type":"way","id":382585960,"nodes":[18232071,8450622801,20831111],"tags":{"highway":"residential","lanes":"1","maxspeed":"30 mph","name":"Waterloo Terrace","oneway":"yes","surface":"asphalt"}},{"type":"way","id":394855411,"nodes":[297054980,1565977990],"tags":{"highway":"primary","lanes":"2","lit":"yes","maxspeed":"30 mph","name":"Charlotte Place","ref":"A335","surface":"asphalt"}},{"type":"way","id":394855412,"nodes":[297054980,6903919664,297051563],"tags":{"highway":"residential","maxspeed":"30 mph","name":"St Mary's Road","oneway":"yes"}},{"type":"way","id":394855413,"nodes":[25938547,9165874413,9195637779,297055383,1565977990],"tags":{"abutters":"retail","highway":"primary","lit":"yes","maxspeed":"30 mph","name":"St Mary's Road","oneway":"yes","ref":"A335","surface":"asphalt"}},{"type":"way","id":394860270,"nodes":[254899,1885303991,1885248605,5410458251,297803409],"tags":{"highway":"primary","lanes":"2","lit":"yes","maxspeed":"30 mph","name":"Cumberland Place","oneway":"yes","ref":"A3024","sidewalk":"left","surface":"asphalt"}},{"type":"way","id":421776734,"nodes":[254756,8117379446,9501402667,20973236],"tags":{"foot":"no","highway":"primary","lanes":"2","maxspeed":"30 mph","name":"Northam Road","oneway":"yes","ref":"A3024","surface":"asphalt"}},{"type":"way","id":421776736,"nodes":[660508642,3873918755,3736286724],"tags":{"bus:lanes":"designated|yes","cycleway:left":"no","foot":"no","highway":"tertiary","lanes":"2","lanes:bus":"1","lit":"yes","maxspeed":"30 mph","name":"New Road","oneway":"yes","surface":"asphalt"}},{"type":"way","id":421776737,"nodes":[3873260083,3736286727,660508642],"tags":{"bus:lanes":"designated|yes","foot":"no","highway":"tertiary","lanes":"2","lanes:bus":"1","maxspeed":"30 mph","name":"New Road","oneway":"yes","surface":"asphalt"}},{"type":"way","id":421776738,"nodes":[660508644,3736286728,245153002],"tags":{"cycleway:left":"no","foot":"no","highway":"tertiary","lanes":"2","maxspeed":"30 mph","name":"New Road","oneway":"yes","parking:lane:left":"no_parking","surface":"asphalt"}},{"type":"way","id":421776774,"nodes":[3736286721,660508644],"tags":{"cycleway:left":"no","foot":"no","highway":"tertiary","lanes":"2","lit":"yes","maxspeed":"30 mph","name":"New Road","oneway":"yes","parking:lane:left":"no_parking","surface":"asphalt"}},{"type":"way","id":421779099,"nodes":[3873260083,3736286726,245152163,1137181205],"tags":{"cycleway:left":"no","foot":"no","highway":"primary","lanes":"2","maxspeed":"30 mph","name":"Kingsway","oneway":"yes","ref":"A33","surface":"asphalt","turn:lanes":"left;through|right"}},{"type":"way","id":467158756,"nodes":[3750461249,6475336480,1219092676,3750461262,8596812],"tags":{"cycleway":"no","highway":"primary","lanes":"2","lit":"yes","maxspeed":"30 mph","oneway":"yes","ref":"A3024","surface":"asphalt"}},{"type":"way","id":469802181,"nodes":[518764,1981156740,1981156756,1981156876,20979930,1137181225,20971145],"tags":{"highway":"residential","maxspeed":"30 mph","name":"Brintons Road"}},{"type":"way","id":469802182,"nodes":[3873260091,3873260089,3873260083],"tags":{"cycleway:left":"no","foot":"no","highway":"primary","lanes":"2","maxspeed":"30 mph","name":"Kingsway","oneway":"yes","ref":"A33","surface":"asphalt"}},{"type":"way","id":469802183,"nodes":[3873260091,660508644],"tags":{"cycleway:left":"no","foot":"no","highway":"primary","lanes":"2","lit":"yes","maxspeed":"30 mph","name":"Northam Road","oneway":"yes","ref":"A3024","surface":"asphalt"}},{"type":"way","id":488307672,"nodes":[2026800325,2446328597],"tags":{"alt_name":"Bournemouth Main Line","electrified":"rail","frequency":"0","gauge":"1435","maxspeed":"40 mph","name":"South Western Main Line","passenger":"national","passenger_lines":"2","railway":"rail","ref":"BML2","usage":"main","voltage":"750"}},{"type":"way","id":510881163,"nodes":[2445985836,2445985849,2445985824,2445995578,2445985794,2445995568,2445995565,2445995572,2445995567,2445995573,2445995569,2445995579,19890103,9293992588],"tags":{"alt_name":"Bournemouth Main Line","electrified":"rail","frequency":"0","gauge":"1435","loading_gauge":"W10","maxspeed":"75 mph","name":"South Western Main Line","passenger":"national","railway":"rail","ref":"BML1","source":"Landsat","usage":"main","voltage":"750"}},{"type":"way","id":561073937,"nodes":[4616100927,6472662976],"tags":{"cycleway:left":"no","highway":"primary","lanes":"1","lit":"yes","maxspeed":"30 mph","oneway":"yes","parking:lane:left":"no_parking","ref":"A3024","surface":"asphalt"}},{"type":"way","id":646818826,"nodes":[331209713,297618263],"tags":{"cycleway:left":"no","highway":"tertiary","lanes":"1","maxspeed":"30 mph","name":"Portland Terrace","oneway":"yes","oneway:bicycle":"yes","surface":"asphalt"}},{"type":"way","id":646818829,"nodes":[331209713,3750461245,3733091521,297618782,3750461260,3750461267],"tags":{"highway":"tertiary","lanes":"1","maxspeed":"30 mph","name":"Civic Centre Road","oneway":"yes","surface":"asphalt"}},{"type":"way","id":662178971,"nodes":[1664291965,8464375111],"tags":{"highway":"primary","lanes":"4","maxspeed":"30 mph","name":"Northam Bridge","parking:lane:both":"no_parking","ref":"A3024","surface":"asphalt"}},{"type":"way","id":662178974,"nodes":[1664291972,1664291965],"tags":{"bridge":"yes","highway":"primary","lanes":"4","layer":"1","maxspeed":"30 mph","maxweight:signed":"no","name":"Northam Bridge","parking:lane:both":"no_parking","ref":"A3024","segregated":"no","shoulder":"no","surface":"asphalt"}},{"type":"way","id":673212002,"nodes":[3893625978,3893625986,3893626001,3893626008,25675146,25675147,25675140],"tags":{"highway":"service","lanes":"1","maxspeed":"20 mph","name":"Strand","oneway":"no","source:name":"OS_OpenData_StreetView"}},{"type":"way","id":689751486,"nodes":[1137181205,34278576],"tags":{"highway":"primary","lanes":"2","maxspeed":"30 mph","name":"Kingsway","oneway":"yes","ref":"A33","surface":"asphalt","turn:lanes":"left;through|right"}},{"type":"way","id":689922265,"nodes":[3750461234,9736882,3750461243,8313139769,2467156376,9736883,8075514939,59936562,8313047861,6472662948,8826114178,5511807825],"tags":{"cycleway":"no","highway":"primary","lanes":"2","lit":"yes","maxspeed":"30 mph","name":"Western Esplanade","oneway":"yes","ref":"A3024","surface":"asphalt"}},{"type":"way","id":689922275,"nodes":[4616100927,6472662966,6472662974,6472662965,297519732,5410557870,3750461294,297518087],"tags":{"cycleway":"no","highway":"unclassified","lane_markings":"no","lit":"yes","maxspeed":"30 mph","name":"Western Esplanade","oneway":"yes","sidewalk":"no","source:maxspeed":"sign","surface":"asphalt"}},{"type":"way","id":689922277,"nodes":[6472662969,6472662971,6472662972,6472662973,6472662974,6472662975,6472662976],"tags":{"highway":"unclassified","maxspeed":"30 mph","oneway":"yes"}},{"type":"way","id":689922279,"nodes":[6472662976,297520242,6472662962,8596749],"tags":{"highway":"primary","lanes":"2","maxspeed":"30 mph","oneway":"yes","parking:lane:left":"no_parking","ref":"A3024","surface":"asphalt"}},{"type":"way","id":690203889,"nodes":[3733093926,9187368514,9187368515,9187368516,254920],"tags":{"highway":"primary","lanes":"2","maxspeed":"30 mph","oneway":"yes","ref":"A3024","surface":"asphalt"}},{"type":"way","id":690203890,"nodes":[3733093926,3750461236],"tags":{"highway":"tertiary","lanes":"3","maxspeed":"30 mph","name":"Portland Terrace","oneway":"yes","surface":"asphalt"}},{"type":"way","id":691367167,"nodes":[6487362650,6487362657,6487362651,6487362652,6487362653,6487362654,6487362655,6487362656],"tags":{"highway":"service","maxspeed":"5 mph"}},{"type":"way","id":738578861,"nodes":[1665941997,1665942001,3932337044,1665935876,6916097424,6916097410,1665942027,254429],"tags":{"highway":"tertiary","lanes":"2","maxspeed":"30 mph","name":"Thomas Lewis Way","oneway":"yes","surface":"asphalt"}},{"type":"way","id":738578862,"nodes":[1665941997,1665942025,1665941987,1665942015,1665942013,1665941991,1665942021,1665942034,8060233029,1665941984],"tags":{"highway":"tertiary","lanes":"2","maxspeed":"30 mph","name":"Thomas Lewis Way","surface":"asphalt"}},{"type":"way","id":738671260,"nodes":[6916973439,6916973440,6916973441],"tags":{"highway":"unclassified","maxspeed":"30 mph","oneway":"yes"}},{"type":"way","id":777255455,"nodes":[14726184,8075514955,1047978822,14726186,8075514954,8075514953,8075514952,14726182,8075514951,14726181,1137184311,14726180],"tags":{"highway":"primary","lanes":"2","maxspeed":"30 mph","name":"St Andrews Road","oneway":"yes","ref":"A33","source":"Yahoo","surface":"asphalt"}},{"type":"way","id":784080099,"nodes":[3737412911,20971190,635142],"tags":{"highway":"residential","maxspeed":"30 mph","name":"South Front"}},{"type":"way","id":814432963,"nodes":[7607513095,7607513096,7607513099,7607513097,7607513098],"tags":{"access":"private","highway":"service","maxspeed":"5 mph"}},{"type":"way","id":814432964,"nodes":[7607513099,7607513100,7607513101],"tags":{"access":"private","highway":"service","maxspeed":"5 mph"}},{"type":"way","id":814432965,"nodes":[7607513099,7607513102],"tags":{"access":"private","highway":"service","maxspeed":"5 mph"}},{"type":"way","id":831687026,"nodes":[319620,2290116143,319619,1749464714],"tags":{"highway":"residential","lanes":"2","maxspeed":"20 mph","name":"Earls Road","surface":"asphalt"}},{"type":"way","id":835620962,"nodes":[301584,6487969958],"tags":{"cycleway:left":"no","highway":"primary","junction":"roundabout","lanes":"3","lit":"yes","maxspeed":"30 mph","name":"Charlotte Place","oneway":"yes","surface":"asphalt"}},{"type":"way","id":848651706,"nodes":[1665484036,1665484026,9195617842,1665484015,1665484031,1665484021,1665484029],"tags":{"highway":"tertiary","lanes":"2","lanes:psv":"1","maxspeed":"30 mph","name":"London Road","oneway":"yes","surface":"asphalt"}},{"type":"way","id":848777205,"nodes":[8450622813,8450622814,8450646423,8450646422,8450646420,8450646418,8075640311,8075640279],"tags":{"highway":"unclassified","lanes":"2","maxspeed":"20 mph","name":"Bedford Place","surface":"asphalt"}},{"type":"way","id":848777207,"nodes":[20831112,940486502,2014580158,2014580157,940486504,940486506,8450646432,8450622807,940485303],"tags":{"highway":"residential","maxspeed":"30 mph","name":"Carlton Place"}},{"type":"way","id":851944288,"nodes":[1665484034,1665484041,1665484037,1665484025,1665484009],"tags":{"highway":"unclassified","lanes":"2","maxspeed":"30 mph","name":"College Place","surface":"asphalt"}},{"type":"way","id":851944289,"nodes":[1693324459,1665484008,1665484023,1665484017,2377144808,1665484022,1665484034],"tags":{"highway":"unclassified","lanes":"2","maxspeed":"30 mph","name":"College Place","surface":"asphalt"}},{"type":"way","id":857344236,"nodes":[811455941,6916097423,6916097422],"tags":{"cycleway:left":"no","cycleway:right":"lane","cycleway:right:lane":"exclusive","highway":"tertiary","highway_authority_ref":"C502","lanes":"2","maxspeed":"30 mph","name":"Portswood Road","old_ref":"A335","surface":"asphalt"}},{"type":"way","id":864723445,"nodes":[1664438249,1665473199,1665473192,1664438276,9165874412,1665473195,1664438232,1665473188,1665473191,1665473187,1664438223,1665473202,1665473193,1665473197,7040911359,1664438219,9165874411,1664438308,1665473204,1665473189,1665473203,1664438247,1665473194,1665473186,1665473205,1665473200,1665473201,1665473196,9266205],"tags":{"highway":"primary","lanes":"2","lit":"yes","maxspeed":"30 mph","name":"Bevois Valley Road","ref":"A335","surface":"asphalt"}},{"type":"way","id":865455066,"nodes":[1664305363,1664305356,1664305194,1664305309,7083755683,1664305219,1664305280,1664305288,1664305274,1664305316,1664305360,1664305252,1664305322,1664305282,7089205420,1664305302,1664305367,7089205419,1664305278,1664305211],"tags":{"cycleway":"no","highway":"primary","lanes":"2","maxspeed":"30 mph","name":"Bitterne Road West","oneway":"yes","parking:lane:left":"no_parking","ref":"A3024","surface":"asphalt"}},{"type":"way","id":866348556,"nodes":[8075065403,296555274,8075065402,296572195,9494134730,254414],"tags":{"highway":"tertiary","highway_authority_ref":"C503","lanes":"3","lanes:backward":"1","lanes:forward":"2","lanes:psv:forward":"1","maxspeed":"30 mph","name":"London Road","surface":"asphalt"}},{"type":"way","id":866348557,"nodes":[2026800383,297618469,3143749048],"tags":{"highway":"tertiary","highway_authority_ref":"C503","lanes":"4","lanes:psv":"2","maxspeed":"30 mph","name":"Civic Centre Road","parking:lane:left":"no_parking","surface":"asphalt"}},{"type":"way","id":866348558,"nodes":[8075065412,1118683219,940485294],"tags":{"highway":"tertiary","highway_authority_ref":"C503","lanes":"2","maxspeed":"30 mph","name":"London Road","surface":"asphalt"}},{"type":"way","id":866401477,"nodes":[3750461311,7767167869,6475347987,3733091515,3733093926],"tags":{"cycleway":"no","highway":"primary","lanes":"3","maxspeed":"30 mph","name":"Havelock Road","oneway":"yes","ref":"A3024","surface":"asphalt"}},{"type":"way","id":866401478,"nodes":[254921,1962424406,3750461311],"tags":{"cycleway":"no","highway":"primary","lanes":"2","maxspeed":"30 mph","name":"Havelock Road","oneway":"yes","ref":"A3024","surface":"asphalt"}},{"type":"way","id":866401479,"nodes":[657799,297805607],"tags":{"highway":"primary","lanes":"3","lit":"yes","maxspeed":"30 mph","name":"Cumberland Place","oneway":"yes","ref":"A3024","surface":"asphalt"}},{"type":"way","id":866448785,"nodes":[1074910945,297803656,297803597],"tags":{"highway":"primary","lanes":"2","lit":"yes","maxspeed":"30 mph","name":"Cumberland Place","oneway":"yes","ref":"A3024","surface":"asphalt"}},{"type":"way","id":870860061,"nodes":[26447516,1958804162,26447517,1156450785,26447518,1964489421,1156450794,26447519,26447510],"tags":{"highway":"residential","maxspeed":"20 mph","name":"Kent Street","oneway":"yes"}},{"type":"way","id":871495207,"nodes":[14726189,297051254],"tags":{"highway":"primary","lanes":"3","lit":"yes","maxspeed":"30 mph","name":"Charlotte Place","ref":"A335","surface":"asphalt"}},{"type":"way","id":871495210,"nodes":[297051603,9195637780,297051559,297054980],"tags":{"highway":"residential","maxspeed":"30 mph","name":"St Mary's Road","oneway":"yes"}},{"type":"way","id":871495211,"nodes":[20973236,3873918738],"tags":{"highway":"primary","lanes":"2","maxspeed":"30 mph","name":"Northam Road","oneway":"yes","ref":"A3024","surface":"asphalt"}},{"type":"way","id":871495212,"nodes":[245153002,254756],"tags":{"cycleway:left":"no","foot":"no","highway":"tertiary","lanes":"2","maxspeed":"30 mph","name":"New Road","oneway":"yes","parking:lane:left":"no_parking","surface":"asphalt"}},{"type":"way","id":871495213,"nodes":[34278534,2470666625],"tags":{"bus:lanes":"designated|yes","highway":"tertiary","lanes":"2","lanes:bus":"1","maxspeed":"30 mph","name":"New Road","oneway":"yes","parking:lane:left":"no_parking","surface":"asphalt"}},{"type":"way","id":871495214,"nodes":[8117379450,8117379455,8117379451,8117379456,8117379457,8117379452,1037511912,7071554254,254444],"tags":{"highway":"tertiary","highway_authority_ref":"C503","lanes":"4","lanes:backward":"2","lanes:bus:backward":"1","lanes:bus:forward":"1","lanes:forward":"2","maxspeed":"30 mph","name":"New Road","parking:lane:both":"no_parking","surface":"asphalt"}},{"type":"way","id":873144976,"nodes":[1976990414,1665472135,1363601549],"tags":{"cycleway":"no","highway":"primary","lanes":"2","lit":"yes","maxspeed":"30 mph","name":"Thomas Lewis Way","ref":"A335","sidewalk":"no","surface":"asphalt"}},{"type":"way","id":873144977,"nodes":[1665472136,1665472134,1976990414],"tags":{"cycleway":"no","highway":"primary","lanes":"2","lit":"yes","maxspeed":"40 mph","name":"Thomas Lewis Way","ref":"A335","sidewalk":"no","surface":"asphalt"}},{"type":"way","id":875456203,"nodes":[25947179,8148672979,8112063484,8148672981,8148672980,25765747],"tags":{"highway":"residential","maxspeed":"20 mph","name":"Derby Road"}},{"type":"way","id":875456204,"nodes":[25765747,8148672983,8112063485,8148672984,25947171],"tags":{"highway":"residential","lanes":"2","maxspeed":"20 mph","motor_vehicle":"destination","name":"Derby Road"}},{"type":"way","id":876130569,"nodes":[20971148,26004488,518765,1984662695,1981156704,1981156714,1981156722,1981156727,518764],"tags":{"highway":"residential","maxspeed":"30 mph","name":"Brintons Road"}},{"type":"way","id":893794427,"nodes":[8307193092,3733058461,8307227986,9520713213,9520713214,297047813],"tags":{"cycleway":"no","highway":"unclassified","lanes":"2","lit":"yes","maxspeed":"30 mph","name":"Blechynden Terrace","sidewalk":"separate","source":"Bing","surface":"asphalt"}},{"type":"way","id":910141393,"nodes":[1664438249,1664438283,14727991,1665478131,1665478113,1665478126,8309691252,266545967,14727967,1665482211,9196001889,14727976,2388312326,8112063478,9312077,25938549,18232130,2388403904,1137181200,9312078,6394822377,1884505954,6668237033,14727951,9483318351,254427],"tags":{"highway":"primary","lanes":"2","lit":"yes","maxspeed":"30 mph","name":"Onslow Road","ref":"A335","sidewalk":"both","surface":"asphalt"}},{"type":"way","id":910141394,"nodes":[1665482223,1665482214,1665482208,1665482235,1665482229],"tags":{"highway":"residential","lanes":"2","maxspeed":"30 mph","name":"Rockstone Lane","surface":"asphalt"}},{"type":"way","id":910141402,"nodes":[8450646431,1094890504],"tags":{"highway":"unclassified","lanes":"2","maxspeed":"30 mph","motor_vehicle:conditional":"no @ (Fr 20:00-24:00; Sa 00:00-03:00,20:00-24:00; Su 00:00-03:00))","name":"Salisbury Street","surface":"asphalt"}},{"type":"way","id":910141407,"nodes":[20831124,8450646431],"tags":{"highway":"unclassified","lanes":"2","maxspeed":"30 mph","name":"Salisbury Street","surface":"asphalt"}},{"type":"way","id":911600072,"nodes":[8464375111,1664291995],"tags":{"bridge":"yes","highway":"primary","lanes":"4","layer":"1","maxspeed":"30 mph","maxweight:signed":"no","name":"Northam Bridge","parking:lane:both":"no_parking","ref":"A3024","shoulder":"no","surface":"asphalt"}},{"type":"way","id":913694007,"nodes":[340527027,3733240626,8487444695,8487444710,1069824576,6475347999,9579241657,21614657],"tags":{"bus":"local","highway":"unclassified","lanes":"2","maxspeed":"30 mph","motor_vehicle":"permit","name":"Bargate Street","surface":"asphalt"}},{"type":"way","id":915515090,"nodes":[8464378380,8504056861,2470666646,2470666651,254759],"tags":{"cycleway":"no","highway":"secondary","lanes":"2","maxspeed":"30 mph","name":"Britannia Road","oneway":"yes","ref":"B3038","source:name":"OS_OpenData_StreetView","surface":"asphalt"}},{"type":"way","id":915515091,"nodes":[254759,8504056864,8504056866,8504056863,8504056862,8504056865,8464378380],"tags":{"cycleway":"no","highway":"secondary","lanes":"1","maxspeed":"30 mph","name":"Britannia Road","oneway":"yes","ref":"B3038","source:name":"OS_OpenData_StreetView","surface":"asphalt"}},{"type":"way","id":915538460,"nodes":[1665482211,1665482232],"tags":{"highway":"residential","lanes":"2","maxspeed":"30 mph","name":"Rockstone Lane","surface":"asphalt"}},{"type":"way","id":916334543,"nodes":[319630,2060890724,319629,2060890725,2060890726,319628,700403],"tags":{"highway":"residential","lanes":"2","maxspeed":"30 mph","name":"Osborne Road South","surface":"asphalt"}},{"type":"way","id":948839822,"nodes":[2446328583,2446328580,2446328585,2446328594],"tags":{"alt_name":"Bournemouth Main Line","electrified":"rail","frequency":"0","gauge":"1435","loading_gauge":"W10","maxspeed":"40 mph","name":"South Western Main Line","note":"Original GPX track contained some inaccuracies and so the segments were adjusted using existing footpath data and Landsat, to make it fit.","note_2":"updated further, from yahoo imagery in solent area","passenger":"national","passenger_lines":"4","railway":"rail","ref":"BML2","source":"Bing","usage":"main","voltage":"750"}},{"type":"way","id":948839825,"nodes":[2446328592,2026764141],"tags":{"alt_name":"Bournemouth Main Line","electrified":"rail","frequency":"0","gauge":"1435","maxspeed":"40 mph","name":"South Western Main Line","passenger":"national","passenger_lines":"4","railway":"rail","ref":"BML2","usage":"main","voltage":"750"}},{"type":"way","id":948839826,"nodes":[2446328574,2446328592],"tags":{"alt_name":"Bournemouth Main Line","electrified":"rail","frequency":"0","gauge":"1435","maxspeed":"40 mph","name":"South Western Main Line","passenger":"national","passenger_lines":"4","railway":"rail","ref":"BML2","usage":"main","voltage":"750"}},{"type":"way","id":948839827,"nodes":[2446087825,4998734857],"tags":{"alt_name":"Bournemouth Main Line","electrified":"rail","frequency":"0","gauge":"1435","loading_gauge":"W10","maxspeed":"75 mph","name":"South Western Main Line","note":"local knowledge helped too","passenger":"national","railway":"rail","ref":"BML2","source":"Landsat","usage":"main","voltage":"750"}},{"type":"way","id":948839831,"nodes":[2445985805,2445985836],"tags":{"alt_name":"Bournemouth Main Line","electrified":"rail","frequency":"0","gauge":"1435","loading_gauge":"W10","maxspeed":"75 mph","name":"South Western Main Line","passenger":"national","railway":"rail","ref":"BML1","source":"Landsat","usage":"main","voltage":"750"}},{"type":"way","id":948839833,"nodes":[2446328597,2446328574],"tags":{"alt_name":"Bournemouth Main Line","electrified":"rail","frequency":"0","gauge":"1435","maxspeed":"40 mph","name":"South Western Main Line","passenger":"national","passenger_lines":"4","railway":"rail","usage":"main","voltage":"750"}},{"type":"way","id":953264730,"nodes":[3873260091,8117379447,254756],"tags":{"cycleway:left":"no","foot":"no","highway":"primary","lanes":"1","lit":"yes","maxspeed":"30 mph","name":"Northam Road","oneway":"yes","ref":"A3024","surface":"asphalt","turn:lanes":"right"}},{"type":"way","id":978202727,"nodes":[1668644111,1668566654],"tags":{"highway":"tertiary","highway_authority_ref":"C504","maxspeed":"20 mph","name":"Chapel Road"}},{"type":"way","id":991968942,"nodes":[1665935858,1665935845,1701085763,25303946,658451,325698,1210107205,9498809449,254461],"tags":{"highway":"tertiary","highway_authority_ref":"C502","lanes":"2","maxspeed":"30 mph","name":"Lodge Road","surface":"asphalt"}},{"type":"way","id":993244321,"nodes":[297047813,1885248595,2576504159],"tags":{"cycleway":"no","highway":"unclassified","lanes":"2","lit":"yes","maxspeed":"30 mph","name":"West Park Road","sidewalk":"separate","source":"Bing","surface":"asphalt"}},{"type":"way","id":993346713,"nodes":[1668244982,1668245021],"tags":{"cycleway":"lane","highway":"primary","lanes":"2","maxspeed":"30 mph","name":"Central Bridge","ref":"A3025","surface":"asphalt"}},{"type":"way","id":995640061,"nodes":[300163945,9193807734,9193807735],"tags":{"highway":"tertiary","maxspeed":"30 mph","name":"Houndwell Place","oneway":"yes"}},{"type":"way","id":995640062,"nodes":[940514407,2513494447,300163945],"tags":{"highway":"tertiary","maxspeed":"30 mph","name":"Houndwell Place","oneway":"yes"}},{"type":"way","id":995640063,"nodes":[940514396,940514398,940514403,940514407],"tags":{"highway":"tertiary","junction":"roundabout","maxspeed":"30 mph","oneway":"yes","parking:lane:both":"no_parking","surface":"asphalt"}},{"type":"way","id":995640064,"nodes":[940514407,9193807736,940514331,9193807735],"tags":{"highway":"tertiary","junction":"roundabout","maxspeed":"30 mph","oneway":"yes","parking:lane:both":"no_parking","surface":"asphalt"}},{"type":"way","id":995640065,"nodes":[940514386,940514391,4498813873,20971159,940514396],"tags":{"highway":"tertiary","junction":"roundabout","maxspeed":"30 mph","oneway":"yes","parking:lane:both":"no_parking","surface":"asphalt"}},{"type":"way","id":995640066,"nodes":[4498813872,349352447,4498813871,245148772],"tags":{"highway":"tertiary","junction":"roundabout","maxspeed":"30 mph","oneway":"yes","parking:lane:both":"no_parking","surface":"asphalt"}},{"type":"way","id":995640067,"nodes":[245148772,940514386],"tags":{"highway":"tertiary","junction":"roundabout","maxspeed":"30 mph","oneway":"yes","parking:lane:both":"no_parking","surface":"asphalt"}},{"type":"way","id":995640068,"nodes":[9193807735,940514333,940514336],"tags":{"highway":"tertiary","junction":"roundabout","maxspeed":"30 mph","oneway":"yes","parking:lane:both":"no_parking","surface":"asphalt"}},{"type":"way","id":995918980,"nodes":[8487532571,8487532570,8487532569,8487532568,8487532567,8487532594,8487532556],"tags":{"bus":"local","highway":"unclassified","lanes":"1","maxspeed":"20 mph","motor_vehicle":"permit"}},{"type":"way","id":995918981,"nodes":[9196213226,300062262],"tags":{"highway":"unclassified","lanes":"2","maxspeed":"20 mph","name":"Hanover Buildings","surface":"asphalt"}},{"type":"way","id":997268067,"nodes":[1446110959,9193581209,9187648162],"tags":{"highway":"tertiary","highway_authority_ref":"C506","lanes":"2","maxspeed":"30 mph","name":"Portland Terrace","parking:lane:both":"no_parking","surface":"asphalt"}},{"type":"way","id":997268068,"nodes":[297645024,1446110959],"tags":{"cycleway":"no","highway":"tertiary","highway_authority_ref":"C506","lanes":"2","layer":"-1","maxheight":"default","maxspeed":"30 mph","name":"Portland Terrace","parking:lane:both":"no_parking","surface":"asphalt","tunnel":"yes"}},{"type":"way","id":997476449,"nodes":[3161157224,297711231,8075508150,3733058462],"tags":{"cycleway:left":"lane","highway":"unclassified","lanes":"2","lit":"yes","maxspeed":"30 mph","name":"West Park Road","sidewalk":"separate","source":"Bing","surface":"asphalt"}},{"type":"way","id":997950673,"nodes":[297798012,411284283,8075065400],"tags":{"bus:forward":"yes","highway":"unclassified","lanes":"2","lit":"yes","maxspeed":"30 mph","motor_vehicle:forward":"permit","name":"Above Bar Street","surface":"asphalt","taxi:forward":"yes"}},{"type":"way","id":997950674,"nodes":[8075065400,8075065401,9214419039],"tags":{"cycleway:right":"lane","highway":"unclassified","lanes":"2","lit":"yes","maxspeed":"30 mph","name":"Above Bar Street","surface":"asphalt"}},{"type":"way","id":997951828,"nodes":[8487532556,8487532574,8487532566,8487532554,340527027],"tags":{"bus":"local","highway":"unclassified","lanes":"1","maxspeed":"20 mph","motor_vehicle":"permit","name":"Bargate Street"}},{"type":"way","id":997951829,"nodes":[3733240625,8492010125,9214437953,8492010124,8492010123,8487532571],"tags":{"bus":"local","highway":"unclassified","lanes":"1","maxspeed":"20 mph","motor_vehicle":"permit","name":"Hanover Buildings"}},{"type":"way","id":1001477945,"nodes":[1940450322,9243765318,10222233,10222234,7767167867,3733091520,3750461246,297618263],"tags":{"highway":"tertiary","highway_authority_ref":"C503","lanes":"3","lit":"yes","maxspeed":"30 mph","name":"Civic Centre Road","oneway":"yes","surface":"asphalt"}},{"type":"way","id":1001477946,"nodes":[3750461230,2388403899,1015843334,1940450322],"tags":{"cycleway:left":"lane","cycleway:left:lane":"advisory","highway":"tertiary","highway_authority_ref":"C503","lanes":"3","lanes:psv":"1","lit":"yes","maxspeed":"30 mph","name":"Civic Centre Road","oneway":"yes","sidewalk":"left","surface":"asphalt"}},{"type":"way","id":1001477947,"nodes":[48958679,3750461279,3750461270,3750461288,3750461230],"tags":{"cycleway:left":"share_busway","highway":"tertiary","highway_authority_ref":"C503","lanes":"2","lanes:psv":"1","lit":"yes","maxspeed":"30 mph","name":"Civic Centre Road","oneway":"yes","sidewalk":"left","surface":"asphalt"}},{"type":"way","id":1001477948,"nodes":[8596798,8075508148,1015843444,3750461258,48958679],"tags":{"highway":"tertiary","highway_authority_ref":"C503","lanes":"2","lit":"yes","maxspeed":"30 mph","name":"Civic Centre Road","oneway":"yes","surface":"asphalt"}},{"type":"way","id":1007412182,"nodes":[9293992588,2446087845,2446087847,17769057,2446087840,2446087825],"tags":{"alt_name":"Bournemouth Main Line","electrified":"rail","frequency":"0","gauge":"1435","loading_gauge":"W10","maxspeed":"75 mph","name":"South Western Main Line","passenger":"national","railway":"rail","ref":"BML2","source":"Landsat","usage":"main","voltage":"750"}},{"type":"way","id":1007412183,"nodes":[9293992589,2446081618,2446087849,2446087836,2446087825],"tags":{"alt_name":"Bournemouth Main Line","electrified":"rail","frequency":"0","gauge":"1435","loading_gauge":"W10","maxspeed":"75 mph","name":"South Western Main Line","passenger":"national","railway":"rail","ref":"BML2","source":"Landsat","usage":"main","voltage":"750"}},{"type":"way","id":1021446714,"nodes":[20831097,1885248608,9507887207,20831098],"tags":{"highway":"residential","lanes":"2","maxspeed":"30 mph","name":"Grosvenor Square"}},{"type":"way","id":1021446716,"nodes":[20831097,2010296163,340526977],"tags":{"highway":"residential","lanes":"1","maxspeed":"30 mph","name":"Grosvenor Square","oneway":"yes","oneway:bicycle":"no","surface":"asphalt"}},{"type":"way","id":1028504814,"nodes":[9482189603,8148672977,8148672978,25947179],"tags":{"highway":"residential","maxspeed":"20 mph","name":"Cranbury Avenue","sidewalk":"both","surface":"asphalt"}},{"type":"way","id":1028777983,"nodes":[254880,9447317660,297057637,2005021241,2005021248,14726555],"tags":{"highway":"primary","lanes":"2","lit":"yes","maxspeed":"30 mph","name":"Dorset Street","old_ref":"A335","oneway":"yes","ref":"A33","surface":"asphalt"}},{"type":"way","id":1030533157,"nodes":[6472662969,297518335,3750461248,3750461234],"tags":{"cycleway":"no","highway":"unclassified","lanes":"2","lit":"yes","maxspeed":"30 mph","name":"Western Esplanade","oneway":"yes","sidewalk":"left","source:maxspeed":"sign","surface":"asphalt"}},{"type":"way","id":1030774308,"nodes":[2470666627,9501402675,8154448568],"tags":{"highway":"primary","lanes":"4","maxspeed":"30 mph","name":"Northam Road","oneway":"yes","ref":"A3024"}},{"type":"way","id":1032959287,"nodes":[9517175558,9517175559],"tags":{"cycleway":"no","highway":"unclassified","lanes":"2","lit":"yes","maxspeed":"30 mph","name":"Northumberland Road","sidewalk":"both","surface":"asphalt"}},{"type":"way","id":1040355431,"nodes":[8487444707,21614657],"tags":{"highway":"tertiary","lanes":"2","maxspeed":"30 mph","name":"Castle Way","parking:lane:both":"no_parking","surface":"asphalt"}},{"type":"way","id":1040355432,"nodes":[9579241658,8487444707],"tags":{"highway":"tertiary","lanes":"2","maxheight":"default","maxspeed":"30 mph","name":"Castle Way","parking:lane:both":"no_parking","surface":"asphalt"}},{"type":"way","id":1041221207,"nodes":[1665472139,1665472138,1665941984],"tags":{"cycleway":"no","highway":"primary","lanes":"3","lit":"yes","maxspeed":"30 mph","name":"Thomas Lewis Way","ref":"A335","surface":"asphalt"}},{"type":"way","id":1043077067,"nodes":[48958681,9600711216],"tags":{"highway":"unclassified","lanes":"3","lanes:backward":"2","lanes:forward":"1","maxheight":"default","maxspeed":"30 mph","name":"Western Esplanade","surface":"asphalt"}},{"type":"way","id":1043077068,"nodes":[48958701,48958685],"tags":{"highway":"unclassified","lit":"yes","maxheight":"default","maxspeed":"30 mph","name":"Pirelli Street","source:name":"survey","surface":"asphalt"}},{"type":"way","id":1043077070,"nodes":[300136367,8018778648,48958685],"tags":{"highway":"unclassified","lanes":"2","maxspeed":"30 mph","name":"Western Esplanade","surface":"asphalt"}},{"type":"way","id":1043077071,"nodes":[9600713230,9600713235,9600713231,9600713232,9600713233,9600713237,48958685,9600713221,9579192263,1400938051,9600713234],"tags":{"highway":"unclassified","lanes":"1","maxspeed":"30 mph","name":"Western Esplanade","oneway":"yes","surface":"asphalt"}},{"type":"way","id":1043077072,"nodes":[9600713234,9579192264],"tags":{"highway":"unclassified","lanes":"1","maxheight":"default","maxspeed":"30 mph","name":"Western Esplanade","oneway":"yes","surface":"asphalt"}},{"type":"way","id":1043077073,"nodes":[9600713229,9600713230],"tags":{"highway":"unclassified","lanes":"1","maxheight":"default","maxspeed":"30 mph","name":"Western Esplanade","oneway":"yes","surface":"asphalt"}}]}